{
"type": "FeatureCollection",
"name": "Data_jalan",
"crs": { "type": "name", "properties": { "name": "urn:ogc:def:crs:OGC:1.3:CRS84" } },
"features": [
{ "type": "Feature", "properties": { "id": 4001, "Nama_Obj": "Jalan Desa", "Kelas_Obj": "Jalan", "Keterangan": "Jalan antar Desa", "area": 0.427 }, "geometry": { "type": "MultiLineString", "coordinates": [ [ [ 117.276586845128207, 4.151673987379015 ], [ 117.276608119071312, 4.155532466893422 ] ] ] } },
{ "type": "Feature", "properties": { "id": 4002, "Nama_Obj": "Jalan Desa", "Kelas_Obj": "Jalan", "Keterangan": "Jalan antar Desa", "area": 0.882 }, "geometry": { "type": "MultiLineString", "coordinates": [ [ [ 117.274426133307713, 4.151830983050726 ], [ 117.276590876963667, 4.151819539270162 ], [ 117.278468608240118, 4.151780175240003 ], [ 117.282367100469756, 4.151799607419014 ] ] ] } },
{ "type": "Feature", "properties": { "id": 4003, "Nama_Obj": "Jalan Desa", "Kelas_Obj": "Jalan", "Keterangan": "Jalan antar Desa", "area": 0.97 }, "geometry": { "type": "MultiLineString", "coordinates": [ [ [ 117.27453881890689, 4.155558219565809 ], [ 117.276608119071312, 4.155532466893422 ], [ 117.27851920941859, 4.155558337784026 ], [ 117.282328353726385, 4.155547551099168 ], [ 117.283277343085985, 4.155561460356856 ] ] ] } },
{ "type": "Feature", "properties": { "id": 4004, "Nama_Obj": "Jalan Desa", "Kelas_Obj": "Jalan", "Keterangan": "Jalan antar Desa", "area": 0.553 }, "geometry": { "type": "MultiLineString", "coordinates": [ [ [ 117.27851920941859, 4.155558337784026 ], [ 117.27850163896818, 4.153661239360037 ], [ 117.278470408641439, 4.151672251553009 ], [ 117.278449700160309, 4.150561609640799 ] ] ] } },
{ "type": "Feature", "properties": { "id": 4005, "Nama_Obj": "Jalan Desa", "Kelas_Obj": "Jalan", "Keterangan": "Jalan antar Desa", "area": 0.428 }, "geometry": { "type": "MultiLineString", "coordinates": [ [ [ 117.27850163896818, 4.153661239360037 ], [ 117.28235776171644, 4.153652367607959 ] ] ] } },
{ "type": "Feature", "properties": { "id": 4006, "Nama_Obj": "Jalan Desa", "Kelas_Obj": "Jalan", "Keterangan": "Jalan antar Desa", "area": 0.213 }, "geometry": { "type": "MultiLineString", "coordinates": [ [ [ 117.276608119071312, 4.155532466893422 ], [ 117.276621799778596, 4.157459465711044 ] ] ] } },
{ "type": "Feature", "properties": { "id": 4007, "Nama_Obj": "Jalan Desa", "Kelas_Obj": "Jalan", "Keterangan": "Jalan antar Desa", "area": 0.212 }, "geometry": { "type": "MultiLineString", "coordinates": [ [ [ 117.27851920941859, 4.155558337784026 ], [ 117.278519572950259, 4.157471498531801 ] ] ] } },
{ "type": "Feature", "properties": { "id": 4008, "Nama_Obj": "Jalan Desa", "Kelas_Obj": "Jalan", "Keterangan": "Jalan antar Desa", "area": 0.226 }, "geometry": { "type": "MultiLineString", "coordinates": [ [ [ 117.276621799778596, 4.157459465711044 ], [ 117.274587865079141, 4.157456602511703 ] ] ] } },
{ "type": "Feature", "properties": { "id": 4009, "Nama_Obj": "Jalan Desa", "Kelas_Obj": "Jalan", "Keterangan": "Jalan antar Desa", "area": 0.211 }, "geometry": { "type": "MultiLineString", "coordinates": [ [ [ 117.276621799778596, 4.157459465711044 ], [ 117.278519572950259, 4.157471498531801 ] ] ] } },
{ "type": "Feature", "properties": { "id": 4010, "Nama_Obj": "Jalan Desa", "Kelas_Obj": "Jalan", "Keterangan": "Jalan antar Desa", "area": 0.199 }, "geometry": { "type": "MultiLineString", "coordinates": [ [ [ 117.278519572950259, 4.157471498531801 ], [ 117.280315683620927, 4.157464084947582 ] ] ] } },
{ "type": "Feature", "properties": { "id": 4011, "Nama_Obj": "Jalan Desa", "Kelas_Obj": "Jalan", "Keterangan": "Jalan antar Desa", "area": 0.243 }, "geometry": { "type": "MultiLineString", "coordinates": [ [ [ 117.276621799778596, 4.157459465711044 ], [ 117.276515335639147, 4.15948570779697 ], [ 117.276515929477426, 4.159651648771481 ] ] ] } },
{ "type": "Feature", "properties": { "id": 4012, "Nama_Obj": "Jalan Desa", "Kelas_Obj": "Jalan", "Keterangan": "Jalan antar Desa", "area": 0.882 }, "geometry": { "type": "MultiLineString", "coordinates": [ [ [ 117.274592866206532, 4.159641657169135 ], [ 117.274590893882902, 4.159516212834082 ], [ 117.274587865079141, 4.157456602511703 ], [ 117.27453881890689, 4.155558219565809 ], [ 117.274578153845709, 4.151831209571321 ], [ 117.274573833349578, 4.151667239725702 ] ] ] } },
{ "type": "Feature", "properties": { "id": 4013, "Nama_Obj": "Jalan Desa", "Kelas_Obj": "Jalan", "Keterangan": "Jalan antar Desa", "area": 1.0 }, "geometry": { "type": "MultiLineString", "coordinates": [ [ [ 117.280347504645462, 4.159518041404358 ], [ 117.280343898285068, 4.159416910798527 ], [ 117.280315683620927, 4.157464084947582 ], [ 117.280371159907631, 4.155546543781515 ], [ 117.280337753150064, 4.153642691949381 ], [ 117.280360700004849, 4.151766018087393 ], [ 117.280357232046981, 4.151656424175728 ], [ 117.280387797673555, 4.150473049293169 ] ] ] } },
{ "type": "Feature", "properties": { "id": 4014, "Nama_Obj": "Jalan Desa", "Kelas_Obj": "Jalan", "Keterangan": "Jalan antar Desa", "area": 0.461 }, "geometry": { "type": "MultiLineString", "coordinates": [ [ [ 117.282331537866696, 4.155750130196668 ], [ 117.282328353726385, 4.155547551099168 ], [ 117.28235776171644, 4.153652367607959 ], [ 117.282332299487834, 4.151794895259894 ], [ 117.282331614705257, 4.151584381970681 ] ] ] } },
{ "type": "Feature", "properties": { "id": 4015, "Nama_Obj": "Jalan Desa", "Kelas_Obj": "Jalan", "Keterangan": "Jalan antar Desa", "area": 0.639 }, "geometry": { "type": "MultiLineString", "coordinates": [ [ [ 117.274590893882902, 4.159516212834081 ], [ 117.276515335639147, 4.15948570779697 ], [ 117.280343898285068, 4.159416910798527 ] ] ] } }
]
}
