{
"type": "FeatureCollection",
"name": "Data_vegetasi",
"crs": { "type": "name", "properties": { "name": "urn:ogc:def:crs:OGC:1.3:CRS84" } },
"features": [
{ "type": "Feature", "properties": { "id": 2001, "Nama_Obj": "Kelapa Sawit", "Kelas_Obj": "Vegetasi", "Keterangan": "Kebun Kelapa Sawit Blok - 1", "area": 1.666 }, "geometry": { "type": "MultiPolygon", "coordinates": [ [ [ [ 117.276535793027278, 4.159435413961559 ], [ 117.276702900365507, 4.159408861100188 ], [ 117.276698459993725, 4.159126472059819 ], [ 117.277577502387871, 4.159135344653785 ], [ 117.277566639485102, 4.157777610864881 ], [ 117.276653534390036, 4.157769273511561 ], [ 117.276535793027278, 4.159435413961559 ] ] ] ] } },
{ "type": "Feature", "properties": { "id": 2002, "Nama_Obj": "Kelapa Sawit", "Kelas_Obj": "Vegetasi", "Keterangan": "Kebun Kelapa Sawit Blok - 2", "area": 1.685 }, "geometry": { "type": "MultiPolygon", "coordinates": [ [ [ [ 117.277577502387871, 4.159135344653785 ], [ 117.278397718046079, 4.159125850396926 ], [ 117.278394592233525, 4.159371515273377 ], [ 117.278622602287157, 4.159356715956902 ], [ 117.278583937555595, 4.157856225801374 ], [ 117.277560699704836, 4.157844372212509 ], [ 117.277577502387871, 4.159135344653785 ] ] ] ] } },
{ "type": "Feature", "properties": { "id": 2003, "Nama_Obj": "Kelapa Sawit", "Kelas_Obj": "Vegetasi", "Keterangan": "Kebun Kelapa Sawit Blok - 3", "area": 3.094 }, "geometry": { "type": "MultiPolygon", "coordinates": [ [ [ [ 117.278622602287157, 4.159356715956902 ], [ 117.280251238291612, 4.159365980042876 ], [ 117.28028377821667, 4.157838054789561 ], [ 117.278583937555595, 4.157856225801374 ], [ 117.278622602287157, 4.159356715956902 ] ] ] ] } },
{ "type": "Feature", "properties": { "id": 2004, "Nama_Obj": "Kelapa Sawit", "Kelas_Obj": "Vegetasi", "Keterangan": "Kebun Kelapa Sawit Blok - 4", "area": 1.868 }, "geometry": { "type": "MultiPolygon", "coordinates": [ [ [ [ 117.275011132262634, 4.159238306140859 ], [ 117.274754956781223, 4.159244705617421 ], [ 117.274773670339329, 4.15949492546021 ], [ 117.276471668291578, 4.159468887038864 ], [ 117.276479722575644, 4.159314371465105 ], [ 117.276302131495143, 4.159313166081155 ], [ 117.276300401765155, 4.158369613871681 ], [ 117.275007465377314, 4.158375190824248 ], [ 117.275011132262634, 4.159238306140859 ] ] ] ] } },
{ "type": "Feature", "properties": { "id": 2005, "Nama_Obj": "Kelapa Sawit", "Kelas_Obj": "Vegetasi", "Keterangan": "Kebun Kelapa Sawit Blok - 5", "area": 1.381 }, "geometry": { "type": "MultiPolygon", "coordinates": [ [ [ [ 117.275007465377314, 4.158375190824248 ], [ 117.276300401765155, 4.158369613871681 ], [ 117.276286671822234, 4.157496135823989 ], [ 117.275095467304212, 4.157484526280053 ], [ 117.27510408425573, 4.157629787045373 ], [ 117.274999196926998, 4.157626770394405 ], [ 117.275007465377314, 4.158375190824248 ] ] ] ] } },
{ "type": "Feature", "properties": { "id": 2006, "Nama_Obj": "Kelapa Sawit", "Kelas_Obj": "Vegetasi", "Keterangan": "Kebun Kelapa Sawit Blok - 6", "area": 1.027 }, "geometry": { "type": "MultiPolygon", "coordinates": [ [ [ [ 117.275065631821164, 4.157406708111762 ], [ 117.276267755674581, 4.157404329074948 ], [ 117.2762913920931, 4.156684646987459 ], [ 117.275065749975383, 4.156747045494316 ], [ 117.275065631821164, 4.157406708111762 ] ] ] ] } },
{ "type": "Feature", "properties": { "id": 2007, "Nama_Obj": "Kelapa Sawit", "Kelas_Obj": "Vegetasi", "Keterangan": "Kebun Kelapa Sawit Blok - 7", "area": 1.638 }, "geometry": { "type": "MultiPolygon", "coordinates": [ [ [ [ 117.275065749975383, 4.156747045494316 ], [ 117.2762913920931, 4.156684646987459 ], [ 117.276318714114169, 4.155865782627997 ], [ 117.276110724531264, 4.155862059232384 ], [ 117.276117237904188, 4.155609321078049 ], [ 117.275056407890034, 4.155596296063052 ], [ 117.275065749975383, 4.156747045494316 ] ] ] ] } },
{ "type": "Feature", "properties": { "id": 2008, "Nama_Obj": "Kelapa Sawit", "Kelas_Obj": "Vegetasi", "Keterangan": "Kebun Kelapa Sawit Blok - 8", "area": 0.893 }, "geometry": { "type": "MultiPolygon", "coordinates": [ [ [ [ 117.276673095181849, 4.157179483036441 ], [ 117.277323431877505, 4.157200758017252 ], [ 117.277306589868871, 4.157018567069843 ], [ 117.277065189444116, 4.157001339013189 ], [ 117.277103992929909, 4.156579667420041 ], [ 117.277313894199537, 4.156593886074909 ], [ 117.277334478891134, 4.155902325694276 ], [ 117.277336567155089, 4.155812818134106 ], [ 117.276906889987657, 4.155823132821119 ], [ 117.276899963713873, 4.156049560710472 ], [ 117.276690393003449, 4.156056389116075 ], [ 117.276673095181849, 4.157179483036441 ] ] ] ] } },
{ "type": "Feature", "properties": { "id": 2009, "Nama_Obj": "Kelapa Sawit", "Kelas_Obj": "Vegetasi", "Keterangan": "Kebun Kelapa Sawit Blok - 9", "area": 0.736 }, "geometry": { "type": "MultiPolygon", "coordinates": [ [ [ [ 117.277323431877505, 4.157200758017252 ], [ 117.277784828574482, 4.157207482231148 ], [ 117.277783952549015, 4.156484683806964 ], [ 117.277774153596226, 4.156305890374485 ], [ 117.27776973522802, 4.15596911580641 ], [ 117.277777532557693, 4.155909342733716 ], [ 117.277334478891134, 4.155902325694276 ], [ 117.277313894199537, 4.156593886074909 ], [ 117.277306589868871, 4.157018567069843 ], [ 117.277323431877505, 4.157200758017252 ] ] ] ] } },
{ "type": "Feature", "properties": { "id": 2010, "Nama_Obj": "Kelapa Sawit", "Kelas_Obj": "Vegetasi", "Keterangan": "Kebun Kelapa Sawit Blok - 10", "area": 1.018 }, "geometry": { "type": "MultiPolygon", "coordinates": [ [ [ [ 117.277784828574482, 4.157207482231148 ], [ 117.27847170906773, 4.157219404979783 ], [ 117.278477356532662, 4.155966678059817 ], [ 117.27776973522802, 4.15596911580641 ], [ 117.277774153596226, 4.156305890374485 ], [ 117.277983944000169, 4.156313093181454 ], [ 117.277983151493117, 4.156485036682258 ], [ 117.277783952549015, 4.156484683806964 ], [ 117.277784828574482, 4.157207482231148 ] ] ] ] } },
{ "type": "Feature", "properties": { "id": 2011, "Nama_Obj": "Kelapa Sawit", "Kelas_Obj": "Vegetasi", "Keterangan": "Kebun Kelapa Sawit Blok - 11", "area": 3.095 }, "geometry": { "type": "MultiPolygon", "coordinates": [ [ [ [ 117.278559294059491, 4.155954853649254 ], [ 117.278574411377761, 4.157403085314888 ], [ 117.280279795028434, 4.157404127591152 ], [ 117.280309762068214, 4.155934138395071 ], [ 117.278559294059491, 4.155954853649254 ] ] ] ] } },
{ "type": "Feature", "properties": { "id": 2012, "Nama_Obj": "Kelapa Sawit", "Kelas_Obj": "Vegetasi", "Keterangan": "Kebun Kelapa Sawit Blok - 12", "area": 0.578 }, "geometry": { "type": "MultiPolygon", "coordinates": [ [ [ [ 117.275094092915836, 4.155506443348108 ], [ 117.275638400762489, 4.155507472964735 ], [ 117.275683237336281, 4.154690961125809 ], [ 117.275075154907768, 4.154690062369605 ], [ 117.275094092915836, 4.155506443348108 ] ] ] ] } },
{ "type": "Feature", "properties": { "id": 2013, "Nama_Obj": "Kelapa Sawit", "Kelas_Obj": "Vegetasi", "Keterangan": "Kebun Kelapa Sawit Blok - 13", "area": 0.582 }, "geometry": { "type": "MultiPolygon", "coordinates": [ [ [ [ 117.275638400762489, 4.155507472964735 ], [ 117.276241458184927, 4.155494413674185 ], [ 117.276249351859349, 4.154689892275866 ], [ 117.275683237336281, 4.154690961125809 ], [ 117.275638400762489, 4.155507472964735 ] ] ] ] } },
{ "type": "Feature", "properties": { "id": 2014, "Nama_Obj": "Kelapa Sawit", "Kelas_Obj": "Vegetasi", "Keterangan": "Kebun Kelapa Sawit Blok - 14", "area": 1.036 }, "geometry": { "type": "MultiPolygon", "coordinates": [ [ [ [ 117.275075154907768, 4.154690062369605 ], [ 117.275683237336281, 4.154690961125809 ], [ 117.275650529227789, 4.153275668131942 ], [ 117.27507026038046, 4.153265553802427 ], [ 117.275075154907768, 4.154690062369605 ] ] ] ] } },
{ "type": "Feature", "properties": { "id": 2015, "Nama_Obj": "Kelapa Sawit", "Kelas_Obj": "Vegetasi", "Keterangan": "Kebun Kelapa Sawit Blok - 15", "area": 1.029 }, "geometry": { "type": "MultiPolygon", "coordinates": [ [ [ [ 117.275683237336281, 4.154690961125809 ], [ 117.276249351859349, 4.154689892275866 ], [ 117.276279943517736, 4.15329991650603 ], [ 117.275650529227789, 4.153275668131942 ], [ 117.275683237336281, 4.154690961125809 ] ] ] ] } },
{ "type": "Feature", "properties": { "id": 2016, "Nama_Obj": "Kelapa Sawit", "Kelas_Obj": "Vegetasi", "Keterangan": "Kebun Kelapa Sawit Blok - 16", "area": 0.506 }, "geometry": { "type": "MultiPolygon", "coordinates": [ [ [ [ 117.275119173219892, 4.153264779650866 ], [ 117.275650529227789, 4.153275668131942 ], [ 117.275636302782118, 4.152536408482411 ], [ 117.275053510529261, 4.152532472906963 ], [ 117.275054764645617, 4.152723684428096 ], [ 117.275056624652308, 4.152953483519632 ], [ 117.275124835827725, 4.152957667258502 ], [ 117.275119173219892, 4.153264779650866 ] ] ] ] } },
{ "type": "Feature", "properties": { "id": 2017, "Nama_Obj": "Kelapa Sawit", "Kelas_Obj": "Vegetasi", "Keterangan": "Kebun Kelapa Sawit Blok - 17", "area": 0.6 }, "geometry": { "type": "MultiPolygon", "coordinates": [ [ [ [ 117.275636302782118, 4.152536408482411 ], [ 117.275650529227789, 4.153275668131942 ], [ 117.276279943517736, 4.15329991650603 ], [ 117.276279973111826, 4.153218336057131 ], [ 117.276287592553174, 4.152952422624602 ], [ 117.2762824823984, 4.152710395188796 ], [ 117.276284604722974, 4.152511674888495 ], [ 117.275636302782118, 4.152536408482411 ] ] ] ] } },
{ "type": "Feature", "properties": { "id": 2018, "Nama_Obj": "Kelapa Sawit", "Kelas_Obj": "Vegetasi", "Keterangan": "Kebun Kelapa Sawit Blok - 18", "area": 0.473 }, "geometry": { "type": "MultiPolygon", "coordinates": [ [ [ [ 117.275636302782118, 4.152536408482411 ], [ 117.275664870686796, 4.151851735677063 ], [ 117.275106184983855, 4.151880751106203 ], [ 117.275106324917289, 4.152112331772646 ], [ 117.275048732779538, 4.152116751872758 ], [ 117.275057001665317, 4.152309606809851 ], [ 117.275053510529261, 4.152532472906963 ], [ 117.275636302782118, 4.152536408482411 ] ] ] ] } },
{ "type": "Feature", "properties": { "id": 2019, "Nama_Obj": "Kelapa Sawit", "Kelas_Obj": "Vegetasi", "Keterangan": "Kebun Kelapa Sawit Blok - 19", "area": 0.459 }, "geometry": { "type": "MultiPolygon", "coordinates": [ [ [ [ 117.275636302782118, 4.152536408482411 ], [ 117.276284604722974, 4.152511674888495 ], [ 117.276288718792642, 4.152356344672751 ], [ 117.276126176569207, 4.152353653710479 ], [ 117.276128329165317, 4.152073352805282 ], [ 117.276260572516279, 4.152065996947144 ], [ 117.276256000011202, 4.151858171940317 ], [ 117.275664870686796, 4.151851735677063 ], [ 117.275636302782118, 4.152536408482411 ] ] ] ] } },
{ "type": "Feature", "properties": { "id": 2020, "Nama_Obj": "Kelapa Sawit", "Kelas_Obj": "Vegetasi", "Keterangan": "Kebun Kelapa Sawit Blok - 20", "area": 0.743 }, "geometry": { "type": "MultiPolygon", "coordinates": [ [ [ [ 117.277573075340442, 4.155518718658548 ], [ 117.278132240256866, 4.155520388229653 ], [ 117.278136648123265, 4.155244878204496 ], [ 117.278075480069333, 4.155244092628233 ], [ 117.278070950080263, 4.155066970319111 ], [ 117.278479772732709, 4.155064004090567 ], [ 117.278481781069942, 4.154802567597899 ], [ 117.277162074142879, 4.154826976141131 ], [ 117.277154667679056, 4.155134113894923 ], [ 117.277586559374058, 4.155153589914538 ], [ 117.277573075340442, 4.155518718658548 ] ] ] ] } },
{ "type": "Feature", "properties": { "id": 2021, "Nama_Obj": "Kelapa Sawit", "Kelas_Obj": "Vegetasi", "Keterangan": "Kebun Kelapa Sawit Blok - 21", "area": 1.017 }, "geometry": { "type": "MultiPolygon", "coordinates": [ [ [ [ 117.277162074142879, 4.154826976141131 ], [ 117.278097469852952, 4.154808654028964 ], [ 117.278103874361776, 4.153992758335915 ], [ 117.277147363357173, 4.15389035810481 ], [ 117.277162074142879, 4.154826976141131 ] ] ] ] } },
{ "type": "Feature", "properties": { "id": 2022, "Nama_Obj": "Kelapa Sawit", "Kelas_Obj": "Vegetasi", "Keterangan": "Kebun Kelapa Sawit Blok - 22", "area": 3.019 }, "geometry": { "type": "MultiPolygon", "coordinates": [ [ [ [ 117.276909733188532, 4.153890611483649 ], [ 117.277147363357173, 4.15389035810481 ], [ 117.278103874361776, 4.153992758335915 ], [ 117.278098681784613, 4.151853793162545 ], [ 117.276932623056709, 4.151842859873516 ], [ 117.276909733188532, 4.153890611483649 ] ] ] ] } },
{ "type": "Feature", "properties": { "id": 2023, "Nama_Obj": "Kelapa Sawit", "Kelas_Obj": "Vegetasi", "Keterangan": "Kebun Kelapa Sawit Blok - 23", "area": 3.859 }, "geometry": { "type": "MultiPolygon", "coordinates": [ [ [ [ 117.280422435518872, 4.155473801805559 ], [ 117.280925419415723, 4.155458815554294 ], [ 117.281117518045235, 4.155452263315841 ], [ 117.282282899482837, 4.155490377172392 ], [ 117.282299220498331, 4.154819511186713 ], [ 117.28211595357439, 4.154832063629778 ], [ 117.28189934487088, 4.154835495210065 ], [ 117.281916448447447, 4.154589612310573 ], [ 117.281987586753289, 4.154557783903312 ], [ 117.282305787760691, 4.154570286827813 ], [ 117.282306029317553, 4.154363267531805 ], [ 117.282303901063429, 4.154005410101657 ], [ 117.282313632095565, 4.153735083258263 ], [ 117.281160439661903, 4.153735803549045 ], [ 117.281118019364996, 4.153704896588195 ], [ 117.280684966049662, 4.153722280940663 ], [ 117.280442470519574, 4.153746296520474 ], [ 117.280422435518872, 4.155473801805559 ] ] ] ] } },
{ "type": "Feature", "properties": { "id": 2024, "Nama_Obj": "Kelapa Sawit", "Kelas_Obj": "Vegetasi", "Keterangan": "Kebun Kelapa Sawit Blok - 24", "area": 4.065 }, "geometry": { "type": "MultiPolygon", "coordinates": [ [ [ [ 117.280422487974278, 4.15358652572186 ], [ 117.282299372028675, 4.153605924455031 ], [ 117.282311373810899, 4.153368894665201 ], [ 117.282298105915146, 4.152079205611409 ], [ 117.28231210376228, 4.151857933634901 ], [ 117.282022183942729, 4.151866032169305 ], [ 117.281952420592475, 4.151874154076912 ], [ 117.281697492251794, 4.151885207299934 ], [ 117.28146085628407, 4.15183719936331 ], [ 117.280407164525982, 4.151831949082937 ], [ 117.280404583465199, 4.152112690832759 ], [ 117.280405854081479, 4.152749949493797 ], [ 117.280422487974278, 4.15358652572186 ] ] ] ] } },
{ "type": "Feature", "properties": { "id": 2025, "Nama_Obj": "Kelapa Sawit", "Kelas_Obj": "Vegetasi", "Keterangan": "Kebun Kelapa Sawit Blok - 25", "area": 2.756 }, "geometry": { "type": "MultiPolygon", "coordinates": [ [ [ [ 117.278543909873562, 4.151721307843616 ], [ 117.279892062250084, 4.15174273405966 ], [ 117.280040721654387, 4.151737749522161 ], [ 117.280290854632511, 4.151727211456898 ], [ 117.28032554564399, 4.150472718558718 ], [ 117.280042102208995, 4.150448256274736 ], [ 117.278751862876831, 4.15048446030504 ], [ 117.278521277707142, 4.150488108475808 ], [ 117.27853857560261, 4.151256258846272 ], [ 117.278536963975611, 4.151348389974413 ], [ 117.278542715302848, 4.151492159177027 ], [ 117.278534592058989, 4.151545138815138 ], [ 117.278543909873562, 4.151721307843616 ] ] ] ] } },
{ "type": "Feature", "properties": { "id": 2026, "Nama_Obj": "KWT Sari Mukti", "Kelas_Obj": "Vegetasi", "Keterangan": "Kebun Tanaman Pangan", "area": 0.378 }, "geometry": { "type": "MultiPolygon", "coordinates": [ [ [ [ 117.279447560025233, 4.15236643643591 ], [ 117.280053467194691, 4.152346592049605 ], [ 117.280086033017355, 4.151845336312843 ], [ 117.279479641405544, 4.151850138895475 ], [ 117.279447560025233, 4.15236643643591 ] ] ] ] } }
]
}
