{
"type": "FeatureCollection",
"name": "Data_LahanKosong",
"crs": { "type": "name", "properties": { "name": "urn:ogc:def:crs:OGC:1.3:CRS84" } },
"features": [
{ "type": "Feature", "properties": { "id": 3001, "Nama_Obj": "Lapangan", "Kelas_Obj": "Lahan Kosong", "Keterangan": "Lahan Kosong", "Area": 0.624 }, "geometry": { "type": "MultiPolygon", "coordinates": [ [ [ [ 117.278561853516521, 4.155075204103813 ], [ 117.279044098850591, 4.155074583412035 ], [ 117.279016194158643, 4.153993443821311 ], [ 117.278556713810687, 4.153997210835717 ], [ 117.278561853516521, 4.155075204103813 ] ] ] ] } },
{ "type": "Feature", "properties": { "id": 3002, "Nama_Obj": "Semak Belukar", "Kelas_Obj": "Lahan Kosong", "Keterangan": "Lahan Kosong", "Area": 2.673 }, "geometry": { "type": "MultiPolygon", "coordinates": [ [ [ [ 117.279057865746182, 4.15550594531518 ], [ 117.280305915517104, 4.155480910924317 ], [ 117.280314326259926, 4.153680782128973 ], [ 117.279367217377015, 4.153703674419682 ], [ 117.279355300098771, 4.154057372280714 ], [ 117.279014496795284, 4.154052242769689 ], [ 117.279057865746182, 4.15550594531518 ] ] ] ] } },
{ "type": "Feature", "properties": { "id": 3003, "Nama_Obj": "Lahan Kosong", "Kelas_Obj": "Lahan Kosong", "Keterangan": "Lahan Kosong", "Area": 3.177 }, "geometry": { "type": "MultiPolygon", "coordinates": [ [ [ [ 117.278587331764442, 4.153666022940041 ], [ 117.2788387424186, 4.15365327027607 ], [ 117.278903624267713, 4.153668032476706 ], [ 117.279469469378142, 4.153650300883882 ], [ 117.280314326259926, 4.153680782128973 ], [ 117.280311607169992, 4.151838724780183 ], [ 117.279479641405544, 4.151850138895475 ], [ 117.279447560025233, 4.15236643643591 ], [ 117.278973968828012, 4.152361652299851 ], [ 117.278974956543678, 4.152201987163242 ], [ 117.278529727449737, 4.152223069402956 ], [ 117.278541864545488, 4.152550948795271 ], [ 117.279034727173453, 4.152558936602969 ], [ 117.27903404680724, 4.152960702641991 ], [ 117.278551912963536, 4.152968335277346 ], [ 117.278587331764442, 4.153666022940041 ] ] ] ] } }
]
}
