{
"type": "FeatureCollection",
"name": "Data_Bangunan",
"crs": { "type": "name", "properties": { "name": "urn:ogc:def:crs:OGC:1.3:CRS84" } },
"features": [
{ "type": "Feature", "properties": { "id": 1001, "area": 0.084777, "Nama_Obj": "Warung Makan", "Keterangan": "Warung Makan", "Kelas_Obj": "Bangunan" }, "geometry": { "type": "MultiPolygon", "coordinates": [ [ [ [ 117.274617323423342, 4.159247398707836 ], [ 117.275011132262634, 4.159238306140859 ], [ 117.275013106653958, 4.159067511537095 ], [ 117.274617131168199, 4.159068450894505 ], [ 117.274617323423342, 4.159247398707836 ] ] ] ] } },
{ "type": "Feature", "properties": { "id": 1002, "area": 0.107702, "Nama_Obj": "Bengkel", "Keterangan": "Bengkel Motor", "Kelas_Obj": "Bangunan" }, "geometry": { "type": "MultiPolygon", "coordinates": [ [ [ [ 117.274617131168199, 4.159068450894505 ], [ 117.275013106653958, 4.159067511537095 ], [ 117.275011397594071, 4.158847651624265 ], [ 117.274616235930793, 4.158844776510671 ], [ 117.274617131168199, 4.159068450894505 ] ] ] ] } },
{ "type": "Feature", "properties": { "id": 1003, "area": 0.118555, "Nama_Obj": "Pemukiman", "Keterangan": "Tempat tinggal warga Desa Srinanti", "Kelas_Obj": "Bangunan" }, "geometry": { "type": "MultiPolygon", "coordinates": [ [ [ [ 117.274616235930793, 4.158844776510671 ], [ 117.275011397594071, 4.158847651624265 ], [ 117.275009829867642, 4.158599718793434 ], [ 117.274612472390686, 4.158605357802196 ], [ 117.274616235930793, 4.158844776510671 ] ] ] ] } },
{ "type": "Feature", "properties": { "id": 1004, "area": 0.112435, "Nama_Obj": "Pemukiman", "Keterangan": "Tempat tinggal warga Desa Srinanti", "Kelas_Obj": "Bangunan" }, "geometry": { "type": "MultiPolygon", "coordinates": [ [ [ [ 117.274612472390686, 4.158605357802196 ], [ 117.275009829867642, 4.158599718793434 ], [ 117.275007465377314, 4.158375190824248 ], [ 117.274606171424693, 4.158371242560346 ], [ 117.274612472390686, 4.158605357802196 ] ] ] ] } },
{ "type": "Feature", "properties": { "id": 1005, "area": 0.099009, "Nama_Obj": "Pemukiman", "Keterangan": "Tempat tinggal warga Desa Srinanti", "Kelas_Obj": "Bangunan" }, "geometry": { "type": "MultiPolygon", "coordinates": [ [ [ [ 117.274606171424693, 4.158371242560346 ], [ 117.275007465377314, 4.158375190824248 ], [ 117.275003139465099, 4.158174086168595 ], [ 117.274610806946285, 4.158165901955649 ], [ 117.274606171424693, 4.158371242560346 ] ] ] ] } },
{ "type": "Feature", "properties": { "id": 1006, "area": 0.0997, "Nama_Obj": "Pemukiman", "Keterangan": "Tempat tinggal warga Desa Srinanti", "Kelas_Obj": "Bangunan" }, "geometry": { "type": "MultiPolygon", "coordinates": [ [ [ [ 117.274610806946285, 4.158165901955649 ], [ 117.275003139465099, 4.158174086168595 ], [ 117.274995136127899, 4.157961343661768 ], [ 117.274610201922258, 4.15796064439483 ], [ 117.274610806946285, 4.158165901955649 ] ] ] ] } },
{ "type": "Feature", "properties": { "id": 1007, "area": 0.095468, "Nama_Obj": "Pemukiman", "Keterangan": "Tempat tinggal warga Desa Srinanti", "Kelas_Obj": "Bangunan" }, "geometry": { "type": "MultiPolygon", "coordinates": [ [ [ [ 117.274610201922258, 4.15796064439483 ], [ 117.274995136127899, 4.157961343661768 ], [ 117.274990773780218, 4.157757900351738 ], [ 117.274614837758207, 4.157755303803499 ], [ 117.274610201922258, 4.15796064439483 ] ] ] ] } },
{ "type": "Feature", "properties": { "id": 1008, "area": 0.1413, "Nama_Obj": "Pemukiman", "Keterangan": "Tempat tinggal warga Desa Srinanti", "Kelas_Obj": "Bangunan" }, "geometry": { "type": "MultiPolygon", "coordinates": [ [ [ [ 117.274614837758207, 4.157755303803499 ], [ 117.274990773780218, 4.157757900351738 ], [ 117.274999196926998, 4.157626770394405 ], [ 117.27510408425573, 4.157629787045373 ], [ 117.275095467304212, 4.157484526280053 ], [ 117.274614736986919, 4.157498721480803 ], [ 117.274614837758207, 4.157755303803499 ] ] ] ] } },
{ "type": "Feature", "properties": { "id": 1009, "area": 0.03064, "Nama_Obj": "Pemukiman", "Keterangan": "Tempat tinggal warga Desa Srinanti", "Kelas_Obj": "Bangunan" }, "geometry": { "type": "MultiPolygon", "coordinates": [ [ [ [ 117.276302131495143, 4.159313166081156 ], [ 117.276479722575644, 4.159314371465105 ], [ 117.276488025155558, 4.159175641637177 ], [ 117.27630260987091, 4.159176899396734 ], [ 117.276302131495143, 4.159313166081156 ] ] ] ] } },
{ "type": "Feature", "properties": { "id": 1010, "area": 0.04443, "Nama_Obj": "Pemukiman", "Keterangan": "Tempat tinggal warga Desa Srinanti", "Kelas_Obj": "Bangunan" }, "geometry": { "type": "MultiPolygon", "coordinates": [ [ [ [ 117.27630260987091, 4.159176899396734 ], [ 117.276488025155558, 4.159175641637177 ], [ 117.276500823875168, 4.158989471544729 ], [ 117.276303093075128, 4.158985368754887 ], [ 117.27630260987091, 4.159176899396734 ] ] ] ] } },
{ "type": "Feature", "properties": { "id": 1011, "area": 0.06553, "Nama_Obj": "Pemukiman", "Keterangan": "Tempat tinggal warga Desa Srinanti", "Kelas_Obj": "Bangunan" }, "geometry": { "type": "MultiPolygon", "coordinates": [ [ [ [ 117.276303093075128, 4.158985368754887 ], [ 117.276500823875168, 4.158989471544729 ], [ 117.276504506998862, 4.158723620409338 ], [ 117.276297237312804, 4.15872405463 ], [ 117.276303093075128, 4.158985368754887 ] ] ] ] } },
{ "type": "Feature", "properties": { "id": 1012, "area": 0.096516, "Nama_Obj": "Pemukiman", "Keterangan": "Tempat tinggal warga Desa Srinanti", "Kelas_Obj": "Bangunan" }, "geometry": { "type": "MultiPolygon", "coordinates": [ [ [ [ 117.276297237312804, 4.15872405463 ], [ 117.276504506998862, 4.158723620409338 ], [ 117.276536495017837, 4.158368723121231 ], [ 117.276300401765155, 4.158369613871681 ], [ 117.276297237312804, 4.15872405463 ] ] ] ] } },
{ "type": "Feature", "properties": { "id": 1013, "area": 0.090265, "Nama_Obj": "Pemukiman", "Keterangan": "Tempat tinggal warga Desa Srinanti", "Kelas_Obj": "Bangunan" }, "geometry": { "type": "MultiPolygon", "coordinates": [ [ [ [ 117.276300401765155, 4.158369613871681 ], [ 117.276536495017837, 4.158368723121231 ], [ 117.276552715187776, 4.158066708019097 ], [ 117.276295769651981, 4.158074946585686 ], [ 117.276300401765155, 4.158369613871681 ] ] ] ] } },
{ "type": "Feature", "properties": { "id": 1014, "area": 0.097741, "Nama_Obj": "Pemukiman", "Keterangan": "Tempat tinggal warga Desa Srinanti", "Kelas_Obj": "Bangunan" }, "geometry": { "type": "MultiPolygon", "coordinates": [ [ [ [ 117.276295769651981, 4.158074946585686 ], [ 117.276552715187776, 4.158066708019097 ], [ 117.27655222998078, 4.157757940049616 ], [ 117.276289253135275, 4.157771537113201 ], [ 117.276295769651981, 4.158074946585686 ] ] ] ] } },
{ "type": "Feature", "properties": { "id": 1015, "area": 0.087149, "Nama_Obj": "Pemukiman", "Keterangan": "Tempat tinggal warga Desa Srinanti", "Kelas_Obj": "Bangunan" }, "geometry": { "type": "MultiPolygon", "coordinates": [ [ [ [ 117.276289253135275, 4.157771537113201 ], [ 117.27655222998078, 4.157757940049616 ], [ 117.276557812824805, 4.157501708151419 ], [ 117.276286671822234, 4.157496135823989 ], [ 117.276289253135275, 4.157771537113201 ] ] ] ] } },
{ "type": "Feature", "properties": { "id": 1016, "area": 0.057062, "Nama_Obj": "Pemukiman", "Keterangan": "Tempat tinggal warga Desa Srinanti", "Kelas_Obj": "Bangunan" }, "geometry": { "type": "MultiPolygon", "coordinates": [ [ [ [ 117.276702900365507, 4.159408861100188 ], [ 117.276860230734826, 4.159413384617853 ], [ 117.276866161314047, 4.15912381372806 ], [ 117.276698459993725, 4.159126472059819 ], [ 117.276702900365507, 4.159408861100188 ] ] ] ] } },
{ "type": "Feature", "properties": { "id": 1017, "area": 0.084274, "Nama_Obj": "Pemukiman", "Keterangan": "Tempat tinggal warga Desa Srinanti", "Kelas_Obj": "Bangunan" }, "geometry": { "type": "MultiPolygon", "coordinates": [ [ [ [ 117.276860230734826, 4.159413384617853 ], [ 117.277101328868682, 4.159411316909023 ], [ 117.277109199298494, 4.159133996356524 ], [ 117.276866161314047, 4.15912381372806 ], [ 117.276860230734826, 4.159413384617853 ] ] ] ] } },
{ "type": "Feature", "properties": { "id": 1018, "area": 0.094005, "Nama_Obj": "Pemukiman", "Keterangan": "Tempat tinggal warga Desa Srinanti", "Kelas_Obj": "Bangunan" }, "geometry": { "type": "MultiPolygon", "coordinates": [ [ [ [ 117.277101328868682, 4.159411316909023 ], [ 117.277374036214184, 4.159419274420376 ], [ 117.277379134507257, 4.15913234888541 ], [ 117.277109199298494, 4.159133996356524 ], [ 117.277101328868682, 4.159411316909023 ] ] ] ] } },
{ "type": "Feature", "properties": { "id": 1019, "area": 0.069119, "Nama_Obj": "Pemukiman", "Keterangan": "Tempat tinggal warga Desa Srinanti", "Kelas_Obj": "Bangunan" }, "geometry": { "type": "MultiPolygon", "coordinates": [ [ [ [ 117.277374036214184, 4.159419274420376 ], [ 117.277574872797416, 4.159412581633369 ], [ 117.277577502387871, 4.159135344653785 ], [ 117.277379134507257, 4.15913234888541 ], [ 117.277374036214184, 4.159419274420376 ] ] ] ] } },
{ "type": "Feature", "properties": { "id": 1020, "area": 0.065195, "Nama_Obj": "Pemukiman", "Keterangan": "Tempat tinggal warga Desa Srinanti", "Kelas_Obj": "Bangunan" }, "geometry": { "type": "MultiPolygon", "coordinates": [ [ [ [ 117.277574872797416, 4.159412581633369 ], [ 117.27776877685929, 4.159409507507005 ], [ 117.277767940197052, 4.159134080079715 ], [ 117.277577502387871, 4.159135344653785 ], [ 117.277574872797416, 4.159412581633369 ] ] ] ] } },
{ "type": "Feature", "properties": { "id": 1021, "area": 0.053722, "Nama_Obj": "Pemukiman", "Keterangan": "Tempat tinggal warga Desa Srinanti", "Kelas_Obj": "Bangunan" }, "geometry": { "type": "MultiPolygon", "coordinates": [ [ [ [ 117.278031406748681, 4.159387799759428 ], [ 117.278200798981075, 4.159381605362559 ], [ 117.278203731773061, 4.159123662591792 ], [ 117.278036031310705, 4.159126321208732 ], [ 117.278031406748681, 4.159387799759428 ] ] ] ] } },
{ "type": "Feature", "properties": { "id": 1022, "area": 0.059927, "Nama_Obj": "Pemukiman", "Keterangan": "Tempat tinggal warga Desa Srinanti", "Kelas_Obj": "Bangunan" }, "geometry": { "type": "MultiPolygon", "coordinates": [ [ [ [ 117.278200798981075, 4.159381605362559 ], [ 117.278394592233525, 4.159371515273377 ], [ 117.278397718046079, 4.159125850396926 ], [ 117.278203731773061, 4.159123662591792 ], [ 117.278200798981075, 4.159381605362559 ] ] ] ] } },
{ "type": "Feature", "properties": { "id": 1023, "area": 0.053822, "Nama_Obj": "Pemukiman", "Keterangan": "Tempat tinggal warga Desa Srinanti", "Kelas_Obj": "Bangunan" }, "geometry": { "type": "MultiPolygon", "coordinates": [ [ [ [ 117.276653534390036, 4.157769273511561 ], [ 117.276843917392341, 4.157764502220422 ], [ 117.276849122918904, 4.157539855873274 ], [ 117.2766551359272, 4.157537666484962 ], [ 117.276653534390036, 4.157769273511561 ] ] ] ] } },
{ "type": "Feature", "properties": { "id": 1024, "area": 0.068811, "Nama_Obj": "Pemukiman", "Keterangan": "Tempat tinggal warga Desa Srinanti", "Kelas_Obj": "Bangunan" }, "geometry": { "type": "MultiPolygon", "coordinates": [ [ [ [ 117.276843917392341, 4.157764502220422 ], [ 117.277085125312055, 4.157769451895665 ], [ 117.277098954896672, 4.157537651480677 ], [ 117.276849122918904, 4.157539855873274 ], [ 117.276843917392341, 4.157764502220422 ] ] ] ] } },
{ "type": "Feature", "properties": { "id": 1025, "area": 0.065492, "Nama_Obj": "Pemukiman", "Keterangan": "Tempat tinggal warga Desa Srinanti", "Kelas_Obj": "Bangunan" }, "geometry": { "type": "MultiPolygon", "coordinates": [ [ [ [ 117.277085125312055, 4.157769451895665 ], [ 117.277315851720658, 4.157774567583393 ], [ 117.277327934336512, 4.157542795048967 ], [ 117.277098954896672, 4.157537651480677 ], [ 117.277085125312055, 4.157769451895665 ] ] ] ] } },
{ "type": "Feature", "properties": { "id": 1026, "area": 0.069118, "Nama_Obj": "Pemukiman", "Keterangan": "Tempat tinggal warga Desa Srinanti", "Kelas_Obj": "Bangunan" }, "geometry": { "type": "MultiPolygon", "coordinates": [ [ [ [ 117.277315851720658, 4.157774567583393 ], [ 117.277566639485102, 4.157777610864881 ], [ 117.277570097891896, 4.157552992812166 ], [ 117.277327934336512, 4.157542795048967 ], [ 117.277315851720658, 4.157774567583393 ] ] ] ] } },
{ "type": "Feature", "properties": { "id": 1027, "area": 0.067874, "Nama_Obj": "Pemukiman", "Keterangan": "Tempat tinggal warga Desa Srinanti", "Kelas_Obj": "Bangunan" }, "geometry": { "type": "MultiPolygon", "coordinates": [ [ [ [ 117.277566639485102, 4.157777610864881 ], [ 117.277560699704836, 4.157844372212509 ], [ 117.277745924141939, 4.157844945593864 ], [ 117.277753411186595, 4.157529254392048 ], [ 117.277570097891896, 4.157552992812166 ], [ 117.277566639485102, 4.157777610864881 ] ] ] ] } },
{ "type": "Feature", "properties": { "id": 1028, "area": 0.090862, "Nama_Obj": "Pemukiman", "Keterangan": "Tempat tinggal warga Desa Srinanti", "Kelas_Obj": "Bangunan" }, "geometry": { "type": "MultiPolygon", "coordinates": [ [ [ [ 117.277745924141939, 4.157844945593864 ], [ 117.277978396877472, 4.157850033314322 ], [ 117.277985801098822, 4.157529080507222 ], [ 117.277753411186595, 4.157529254392048 ], [ 117.277745924141939, 4.157844945593864 ] ] ] ] } },
{ "type": "Feature", "properties": { "id": 1029, "area": 0.089188, "Nama_Obj": "Pemukiman", "Keterangan": "Tempat tinggal warga Desa Srinanti", "Kelas_Obj": "Bangunan" }, "geometry": { "type": "MultiPolygon", "coordinates": [ [ [ [ 117.277978396877472, 4.157850033314322 ], [ 117.278202052306895, 4.157849997504688 ], [ 117.278218273520793, 4.157534168428053 ], [ 117.277985801098822, 4.157529080507222 ], [ 117.277978396877472, 4.157850033314322 ] ] ] ] } },
{ "type": "Feature", "properties": { "id": 1030, "area": 0.104242, "Nama_Obj": "Pemukiman", "Keterangan": "Tempat tinggal warga Desa Srinanti", "Kelas_Obj": "Bangunan" }, "geometry": { "type": "MultiPolygon", "coordinates": [ [ [ [ 117.278202052306895, 4.157849997504688 ], [ 117.278467715265066, 4.157854559032455 ], [ 117.278485600503174, 4.157533440712862 ], [ 117.278218273520793, 4.157534168428053 ], [ 117.278202052306895, 4.157849997504688 ] ] ] ] } },
{ "type": "Feature", "properties": { "id": 1031, "area": 0.147227, "Nama_Obj": "Pemukiman", "Keterangan": "Tempat tinggal warga Desa Srinanti", "Kelas_Obj": "Bangunan" }, "geometry": { "type": "MultiPolygon", "coordinates": [ [ [ [ 117.274622072648285, 4.157409568456128 ], [ 117.275065631821164, 4.157406708111762 ], [ 117.275071923611378, 4.157139937068229 ], [ 117.274616136310826, 4.157142990677099 ], [ 117.274622072648285, 4.157409568456128 ] ] ] ] } },
{ "type": "Feature", "properties": { "id": 1032, "area": 0.099692, "Nama_Obj": "Pemukiman", "Keterangan": "Tempat tinggal warga Desa Srinanti", "Kelas_Obj": "Bangunan" }, "geometry": { "type": "MultiPolygon", "coordinates": [ [ [ [ 117.274616136310826, 4.157142990677099 ], [ 117.275071923611378, 4.157139937068229 ], [ 117.275072661242007, 4.156964483700185 ], [ 117.27461418479858, 4.156963193554841 ], [ 117.274616136310826, 4.157142990677099 ] ] ] ] } },
{ "type": "Feature", "properties": { "id": 1033, "area": 0.122864, "Nama_Obj": "Pemukiman", "Keterangan": "Tempat tinggal warga Desa Srinanti", "Kelas_Obj": "Bangunan" }, "geometry": { "type": "MultiPolygon", "coordinates": [ [ [ [ 117.27461418479858, 4.156963193554841 ], [ 117.275072661242007, 4.156964483700185 ], [ 117.275065749975383, 4.156747045494316 ], [ 117.274606379534731, 4.156744453313221 ], [ 117.27461418479858, 4.156963193554841 ] ] ] ] } },
{ "type": "Feature", "properties": { "id": 1034, "area": 0.123539, "Nama_Obj": "Pemukiman", "Keterangan": "Tempat tinggal warga Desa Srinanti", "Kelas_Obj": "Bangunan" }, "geometry": { "type": "MultiPolygon", "coordinates": [ [ [ [ 117.274606379534731, 4.156744453313221 ], [ 117.275065749975383, 4.156747045494316 ], [ 117.27505867354256, 4.15651908339668 ], [ 117.274603051927983, 4.156532659821709 ], [ 117.274606379534731, 4.156744453313221 ] ] ] ] } },
{ "type": "Feature", "properties": { "id": 1035, "area": 0.159425, "Nama_Obj": "Warung", "Keterangan": "Warung Makan Di'Macik", "Kelas_Obj": "Bangunan" }, "geometry": { "type": "MultiPolygon", "coordinates": [ [ [ [ 117.274603051927983, 4.156532659821709 ], [ 117.27505867354256, 4.15651908339668 ], [ 117.275071678234539, 4.156234661900974 ], [ 117.274607377425184, 4.156251884142115 ], [ 117.274603051927983, 4.156532659821709 ] ] ] ] } },
{ "type": "Feature", "properties": { "id": 1036, "area": 0.112016, "Nama_Obj": "Pemukiman", "Keterangan": "Tempat tinggal warga Desa Srinanti", "Kelas_Obj": "Bangunan" }, "geometry": { "type": "MultiPolygon", "coordinates": [ [ [ [ 117.274607377425184, 4.156251884142115 ], [ 117.275071678234539, 4.156234661900974 ], [ 117.275054727089397, 4.156045453365589 ], [ 117.274614497150424, 4.156037732175892 ], [ 117.274607377425184, 4.156251884142115 ] ] ] ] } },
{ "type": "Feature", "properties": { "id": 1037, "area": 0.13497, "Nama_Obj": "Pemukiman", "Keterangan": "Tempat tinggal warga Desa Srinanti", "Kelas_Obj": "Bangunan" }, "geometry": { "type": "MultiPolygon", "coordinates": [ [ [ [ 117.274614497150424, 4.156037732175892 ], [ 117.275054727089397, 4.156045453365589 ], [ 117.27505599998878, 4.155792797194128 ], [ 117.274607201039743, 4.155795737802309 ], [ 117.274614497150424, 4.156037732175892 ] ] ] ] } },
{ "type": "Feature", "properties": { "id": 1038, "area": 0.102879, "Nama_Obj": "Pemukiman", "Keterangan": "Tempat tinggal warga Desa Srinanti", "Kelas_Obj": "Bangunan" }, "geometry": { "type": "MultiPolygon", "coordinates": [ [ [ [ 117.274607201039743, 4.155795737802309 ], [ 117.27505599998878, 4.155792797194128 ], [ 117.275056407890034, 4.155596296063052 ], [ 117.274606178996635, 4.155619434807856 ], [ 117.274607201039743, 4.155795737802309 ] ] ] ] } },
{ "type": "Feature", "properties": { "id": 1039, "area": 0.083473, "Nama_Obj": "Pemukiman", "Keterangan": "Tempat tinggal warga Desa Srinanti", "Kelas_Obj": "Bangunan" }, "geometry": { "type": "MultiPolygon", "coordinates": [ [ [ [ 117.276267755674581, 4.157404329074948 ], [ 117.27657531812028, 4.157406473503735 ], [ 117.276578777147051, 4.157181854616458 ], [ 117.276271325058971, 4.157186725815029 ], [ 117.276267755674581, 4.157404329074948 ] ] ] ] } },
{ "type": "Feature", "properties": { "id": 1040, "area": 0.09666, "Nama_Obj": "Pemukiman", "Keterangan": "Tempat tinggal warga Desa Srinanti", "Kelas_Obj": "Bangunan" }, "geometry": { "type": "MultiPolygon", "coordinates": [ [ [ [ 117.276271325058971, 4.157186725815029 ], [ 117.276578777147051, 4.157181854616458 ], [ 117.276576416858305, 4.156920485392474 ], [ 117.276279473756034, 4.156926944205312 ], [ 117.276271325058971, 4.157186725815029 ] ] ] ] } },
{ "type": "Feature", "properties": { "id": 1041, "area": 0.082512, "Nama_Obj": "Pemukiman", "Keterangan": "Tempat tinggal warga Desa Srinanti", "Kelas_Obj": "Bangunan" }, "geometry": { "type": "MultiPolygon", "coordinates": [ [ [ [ 117.276279473756034, 4.156926944205312 ], [ 117.276576416858305, 4.156920485392474 ], [ 117.276564071643548, 4.156690853674831 ], [ 117.2762913920931, 4.156684646987459 ], [ 117.276279473756034, 4.156926944205312 ] ] ] ] } },
{ "type": "Feature", "properties": { "id": 1042, "area": 0.063339, "Nama_Obj": "Pemukiman", "Keterangan": "Tempat tinggal warga Desa Srinanti", "Kelas_Obj": "Bangunan" }, "geometry": { "type": "MultiPolygon", "coordinates": [ [ [ [ 117.2762913920931, 4.156684646987459 ], [ 117.276564071643548, 4.156690853674831 ], [ 117.276563591263113, 4.156493490513711 ], [ 117.276300671245181, 4.156496778269629 ], [ 117.2762913920931, 4.156684646987459 ] ] ] ] } },
{ "type": "Feature", "properties": { "id": 1043, "area": 0.073499, "Nama_Obj": "Pemukiman", "Keterangan": "Tempat tinggal warga Desa Srinanti", "Kelas_Obj": "Bangunan" }, "geometry": { "type": "MultiPolygon", "coordinates": [ [ [ [ 117.276300671245181, 4.156496778269629 ], [ 117.276563591263113, 4.156493490513712 ], [ 117.276564320498522, 4.156261897261984 ], [ 117.276309275323797, 4.156265937253468 ], [ 117.276300671245181, 4.156496778269629 ] ] ] ] } },
{ "type": "Feature", "properties": { "id": 1044, "area": 0.066501, "Nama_Obj": "Pemukiman", "Keterangan": "Tempat tinggal warga Desa Srinanti", "Kelas_Obj": "Bangunan" }, "geometry": { "type": "MultiPolygon", "coordinates": [ [ [ [ 117.276309275323797, 4.156265937253468 ], [ 117.276564320498522, 4.156261897261984 ], [ 117.276560930750691, 4.15604615892064 ], [ 117.276318058722509, 4.156046497071578 ], [ 117.276309275323797, 4.156265937253468 ] ] ] ] } },
{ "type": "Feature", "properties": { "id": 1045, "area": 0.056223, "Nama_Obj": "Pemukiman", "Keterangan": "Tempat tinggal warga Desa Srinanti", "Kelas_Obj": "Bangunan" }, "geometry": { "type": "MultiPolygon", "coordinates": [ [ [ [ 117.276318058722509, 4.156046497071578 ], [ 117.276560930750691, 4.15604615892064 ], [ 117.276568408274244, 4.155854810147178 ], [ 117.276318714114169, 4.155865782627997 ], [ 117.276318058722509, 4.156046497071578 ] ] ] ] } },
{ "type": "Feature", "properties": { "id": 1046, "area": 0.146191, "Nama_Obj": "Gereja", "Keterangan": "Gereja Anglikan Indonesia", "Kelas_Obj": "Bangunan" }, "geometry": { "type": "MultiPolygon", "coordinates": [ [ [ [ 117.276318714114169, 4.155865782627997 ], [ 117.276568408274244, 4.155854810147178 ], [ 117.276580079471216, 4.155596727517329 ], [ 117.276117237904188, 4.155609321078049 ], [ 117.276110724531264, 4.155862059232384 ], [ 117.276318714114169, 4.155865782627997 ] ] ] ] } },
{ "type": "Feature", "properties": { "id": 1047, "area": 0.063417, "Nama_Obj": "Pemukiman", "Keterangan": "Tempat tinggal warga Desa Srinanti", "Kelas_Obj": "Bangunan" }, "geometry": { "type": "MultiPolygon", "coordinates": [ [ [ [ 117.276677064806464, 4.157432054637362 ], [ 117.276890074505332, 4.157421661842418 ], [ 117.276889984521048, 4.157193590643033 ], [ 117.276673095181849, 4.157179483036441 ], [ 117.276677064806464, 4.157432054637362 ] ] ] ] } },
{ "type": "Feature", "properties": { "id": 1048, "area": 0.050782, "Nama_Obj": "Pemukiman", "Keterangan": "Tempat tinggal warga Desa Srinanti", "Kelas_Obj": "Bangunan" }, "geometry": { "type": "MultiPolygon", "coordinates": [ [ [ [ 117.276890074505332, 4.157421661842418 ], [ 117.277068201503951, 4.157415330542357 ], [ 117.277085800832737, 4.157201014443867 ], [ 117.276889984521048, 4.157193590643033 ], [ 117.276890074505332, 4.157421661842418 ] ] ] ] } },
{ "type": "Feature", "properties": { "id": 1049, "area": 0.067353, "Nama_Obj": "Pemukiman", "Keterangan": "Tempat tinggal warga Desa Srinanti", "Kelas_Obj": "Bangunan" }, "geometry": { "type": "MultiPolygon", "coordinates": [ [ [ [ 117.277068201503951, 4.157415330542357 ], [ 117.277330454385677, 4.15742521018695 ], [ 117.277323431877505, 4.157200758017252 ], [ 117.277085800832737, 4.157201014443867 ], [ 117.277068201503951, 4.157415330542357 ] ] ] ] } },
{ "type": "Feature", "properties": { "id": 1050, "area": 0.0555, "Nama_Obj": "Pemukiman", "Keterangan": "Tempat tinggal warga Desa Srinanti", "Kelas_Obj": "Bangunan" }, "geometry": { "type": "MultiPolygon", "coordinates": [ [ [ [ 117.277330454385677, 4.15742521018695 ], [ 117.277532982264887, 4.157414983325678 ], [ 117.277533112636874, 4.157200944393763 ], [ 117.277323431877505, 4.157200758017252 ], [ 117.277330454385677, 4.15742521018695 ] ] ] ] } },
{ "type": "Feature", "properties": { "id": 1051, "area": 0.066036, "Nama_Obj": "Pemukiman", "Keterangan": "Tempat tinggal warga Desa Srinanti", "Kelas_Obj": "Bangunan" }, "geometry": { "type": "MultiPolygon", "coordinates": [ [ [ [ 117.277532982264887, 4.157414983325678 ], [ 117.277788136895538, 4.157417957670532 ], [ 117.277784828574482, 4.157207482231148 ], [ 117.277533112636874, 4.157200944393763 ], [ 117.277532982264887, 4.157414983325678 ] ] ] ] } },
{ "type": "Feature", "properties": { "id": 1052, "area": 0.052648, "Nama_Obj": "Pemukiman", "Keterangan": "Tempat tinggal warga Desa Srinanti", "Kelas_Obj": "Bangunan" }, "geometry": { "type": "MultiPolygon", "coordinates": [ [ [ [ 117.277788136895538, 4.157417957670532 ], [ 117.277983787188404, 4.157414857280773 ], [ 117.278001524042551, 4.157209311710067 ], [ 117.277784828574482, 4.157207482231148 ], [ 117.277788136895538, 4.157417957670532 ] ] ] ] } },
{ "type": "Feature", "properties": { "id": 1053, "area": 0.059362, "Nama_Obj": "Pemukiman", "Keterangan": "Tempat tinggal warga Desa Srinanti", "Kelas_Obj": "Bangunan" }, "geometry": { "type": "MultiPolygon", "coordinates": [ [ [ [ 117.277983787188404, 4.157414857280773 ], [ 117.278219918751958, 4.157430413692143 ], [ 117.278218191763457, 4.15720938716432 ], [ 117.278001524042551, 4.157209311710067 ], [ 117.277983787188404, 4.157414857280773 ] ] ] ] } },
{ "type": "Feature", "properties": { "id": 1054, "area": 0.067296, "Nama_Obj": "Pemukiman", "Keterangan": "Tempat tinggal warga Desa Srinanti", "Kelas_Obj": "Bangunan" }, "geometry": { "type": "MultiPolygon", "coordinates": [ [ [ [ 117.278219918751958, 4.157430413692143 ], [ 117.278476736882681, 4.157428098225303 ], [ 117.27847170906773, 4.157219404979783 ], [ 117.278218191763457, 4.15720938716432 ], [ 117.278219918751958, 4.157430413692143 ] ] ] ] } },
{ "type": "Feature", "properties": { "id": 1055, "area": 0.117684, "Nama_Obj": "Pemukiman", "Keterangan": "Tempat tinggal warga Desa Srinanti", "Kelas_Obj": "Bangunan" }, "geometry": { "type": "MultiPolygon", "coordinates": [ [ [ [ 117.277065189444116, 4.157001339013189 ], [ 117.277306589868871, 4.157018567069843 ], [ 117.277313894199537, 4.156593886074909 ], [ 117.277103992929909, 4.156579667420041 ], [ 117.277065189444116, 4.157001339013189 ] ] ] ] } },
{ "type": "Feature", "properties": { "id": 1056, "area": 0.044009, "Nama_Obj": "Pemukiman", "Keterangan": "Tempat tinggal warga Desa Srinanti", "Kelas_Obj": "Bangunan" }, "geometry": { "type": "MultiPolygon", "coordinates": [ [ [ [ 117.277783952549015, 4.156484683806964 ], [ 117.277983151493117, 4.156485036682258 ], [ 117.277983944000169, 4.156313093181454 ], [ 117.277774153596226, 4.156305890374485 ], [ 117.277783952549015, 4.156484683806964 ] ] ] ] } },
{ "type": "Feature", "properties": { "id": 1057, "area": 0.118135, "Nama_Obj": "Pemukiman", "Keterangan": "Tempat tinggal warga Desa Srinanti", "Kelas_Obj": "Bangunan" }, "geometry": { "type": "MultiPolygon", "coordinates": [ [ [ [ 117.276690393003449, 4.156056389116075 ], [ 117.276899963713873, 4.156049560710472 ], [ 117.276914147123321, 4.155617752560477 ], [ 117.27668683216028, 4.155607317605925 ], [ 117.276690393003449, 4.156056389116075 ] ] ] ] } },
{ "type": "Feature", "properties": { "id": 1058, "area": 0.056136, "Nama_Obj": "Toko", "Keterangan": "Warung Sembako", "Kelas_Obj": "Bangunan" }, "geometry": { "type": "MultiPolygon", "coordinates": [ [ [ [ 117.276914147123321, 4.155617752560477 ], [ 117.276906889987657, 4.155823132821119 ], [ 117.27713047683541, 4.155818714138645 ], [ 117.277133325376127, 4.155610772272011 ], [ 117.276914147123321, 4.155617752560477 ] ] ] ] } },
{ "type": "Feature", "properties": { "id": 1059, "area": 0.051728, "Nama_Obj": "Toko", "Keterangan": "Toko Perlengkapan Rumah Tangga", "Kelas_Obj": "Bangunan" }, "geometry": { "type": "MultiPolygon", "coordinates": [ [ [ [ 117.27713047683541, 4.155818714138645 ], [ 117.277336567155089, 4.155812818134106 ], [ 117.27733775143534, 4.155610165993832 ], [ 117.277133325376127, 4.155610772272011 ], [ 117.27713047683541, 4.155818714138645 ] ] ] ] } },
{ "type": "Feature", "properties": { "id": 1060, "area": 0.095969, "Nama_Obj": "Pemukiman", "Keterangan": "Tempat tinggal warga Desa Srinanti", "Kelas_Obj": "Bangunan" }, "geometry": { "type": "MultiPolygon", "coordinates": [ [ [ [ 117.277336567155089, 4.155812818134106 ], [ 117.277334478891134, 4.155902325694276 ], [ 117.277595802373, 4.155908712653698 ], [ 117.277615739017719, 4.155620675290468 ], [ 117.27733775143534, 4.155610165993832 ], [ 117.277336567155089, 4.155812818134106 ] ] ] ] } },
{ "type": "Feature", "properties": { "id": 1061, "area": 0.063827, "Nama_Obj": "Pemukiman", "Keterangan": "Tempat tinggal warga Desa Srinanti", "Kelas_Obj": "Bangunan" }, "geometry": { "type": "MultiPolygon", "coordinates": [ [ [ [ 117.277595802373, 4.155908712653698 ], [ 117.277777532557693, 4.155909342733716 ], [ 117.277793947812242, 4.155619606942542 ], [ 117.277615739017719, 4.155620675290468 ], [ 117.277595802373, 4.155908712653698 ] ] ] ] } },
{ "type": "Feature", "properties": { "id": 1062, "area": 0.084648, "Nama_Obj": "Toko", "Keterangan": "Toko Sembako dan Perlengkapan", "Kelas_Obj": "Bangunan" }, "geometry": { "type": "MultiPolygon", "coordinates": [ [ [ [ 117.277777532557693, 4.155909342733716 ], [ 117.27776973522802, 4.15596911580641 ], [ 117.277982881476376, 4.155967493734345 ], [ 117.27797553999774, 4.155611467370004 ], [ 117.277793947812242, 4.155619606942542 ], [ 117.277777532557693, 4.155909342733716 ] ] ] ] } },
{ "type": "Feature", "properties": { "id": 1063, "area": 0.218341, "Nama_Obj": "Pemukiman", "Keterangan": "Tempat tinggal warga Desa Srinanti", "Kelas_Obj": "Bangunan" }, "geometry": { "type": "MultiPolygon", "coordinates": [ [ [ [ 117.277982881476376, 4.155967493734345 ], [ 117.278477356532662, 4.155966678059817 ], [ 117.27848227048392, 4.155612212627865 ], [ 117.27797553999774, 4.155611467370004 ], [ 117.277982881476376, 4.155967493734345 ] ] ] ] } },
{ "type": "Feature", "properties": { "id": 1064, "area": 0.647367, "Nama_Obj": "Pemukiman", "Keterangan": "Tempat tinggal warga Desa Srinanti", "Kelas_Obj": "Bangunan" }, "geometry": { "type": "MultiPolygon", "coordinates": [ [ [ [ 117.278583937555595, 4.157856225801374 ], [ 117.28028377821667, 4.157838054789561 ], [ 117.280285912054097, 4.157529249674821 ], [ 117.278599964346455, 4.157541935348583 ], [ 117.278583937555595, 4.157856225801374 ] ] ] ] } },
{ "type": "Feature", "properties": { "id": 1065, "area": 0.740533, "Nama_Obj": "Pemukiman", "Keterangan": "Tempat tinggal warga Desa Srinanti", "Kelas_Obj": "Bangunan" }, "geometry": { "type": "MultiPolygon", "coordinates": [ [ [ [ 117.278559294059491, 4.155954853649254 ], [ 117.280309762068214, 4.155934138395071 ], [ 117.280311236583074, 4.155583238663966 ], [ 117.278571415940675, 4.155614309296067 ], [ 117.278559294059491, 4.155954853649254 ] ] ] ] } },
{ "type": "Feature", "properties": { "id": 1066, "area": 0.188478, "Nama_Obj": "Warung", "Keterangan": "Pom Mini dan Counter Difa Cell", "Kelas_Obj": "Bangunan" }, "geometry": { "type": "MultiPolygon", "coordinates": [ [ [ [ 117.276637497816978, 4.155525641877721 ], [ 117.277028895489181, 4.155525583326162 ], [ 117.277032344897336, 4.155133419503398 ], [ 117.276643526425701, 4.155130805022105 ], [ 117.276637497816978, 4.155525641877721 ] ] ] ] } },
{ "type": "Feature", "properties": { "id": 1067, "area": 0.131642, "Nama_Obj": "Pemukiman", "Keterangan": "Tempat tinggal warga Desa Srinanti", "Kelas_Obj": "Bangunan" }, "geometry": { "type": "MultiPolygon", "coordinates": [ [ [ [ 117.277028895489181, 4.155525583326162 ], [ 117.277303946144968, 4.155515963740201 ], [ 117.277320868970861, 4.155147271365509 ], [ 117.277032344897336, 4.155133419503398 ], [ 117.277028895489181, 4.155525583326162 ] ] ] ] } },
{ "type": "Feature", "properties": { "id": 1068, "area": 0.120547, "Nama_Obj": "Toko", "Keterangan": "Toko Elektronik", "Kelas_Obj": "Bangunan" }, "geometry": { "type": "MultiPolygon", "coordinates": [ [ [ [ 117.277303946144968, 4.155515963740201 ], [ 117.277573075340442, 4.155518718658548 ], [ 117.277586559374058, 4.155153589914538 ], [ 117.277320868970861, 4.155147271365509 ], [ 117.277303946144968, 4.155515963740201 ] ] ] ] } },
{ "type": "Feature", "properties": { "id": 1069, "area": 0.115389, "Nama_Obj": "Cafe", "Keterangan": "Warung Makan/cafe", "Kelas_Obj": "Bangunan" }, "geometry": { "type": "MultiPolygon", "coordinates": [ [ [ [ 117.278132240256866, 4.155520388229653 ], [ 117.278474737138694, 4.155521980669105 ], [ 117.278482721282302, 4.155251677535191 ], [ 117.278136648123265, 4.155244878204496 ], [ 117.278132240256866, 4.155520388229653 ] ] ] ] } },
{ "type": "Feature", "properties": { "id": 1070, "area": 0.091276, "Nama_Obj": "Pemukiman", "Keterangan": "Tempat tinggal warga Desa Srinanti", "Kelas_Obj": "Bangunan" }, "geometry": { "type": "MultiPolygon", "coordinates": [ [ [ [ 117.278136648123265, 4.155244878204496 ], [ 117.278482721282302, 4.155251677535191 ], [ 117.278479772732709, 4.155064004090567 ], [ 117.278070950080263, 4.155066970319111 ], [ 117.278075480069333, 4.155244092628233 ], [ 117.278136648123265, 4.155244878204496 ] ] ] ] } },
{ "type": "Feature", "properties": { "id": 1071, "area": 0.198958, "Nama_Obj": "Sekolah", "Keterangan": "MI Mutiara Perbatasan", "Kelas_Obj": "Bangunan" }, "geometry": { "type": "MultiPolygon", "coordinates": [ [ [ [ 117.276643526425701, 4.155130805022105 ], [ 117.277154667679056, 4.155134113894923 ], [ 117.277162074142879, 4.154826976141131 ], [ 117.276630720016499, 4.154816091925608 ], [ 117.276643526425701, 4.155130805022105 ] ] ] ] } },
{ "type": "Feature", "properties": { "id": 1072, "area": 0.260459, "Nama_Obj": "Penginapan", "Keterangan": "Penginapan", "Kelas_Obj": "Bangunan" }, "geometry": { "type": "MultiPolygon", "coordinates": [ [ [ [ 117.276630720016499, 4.154816091925608 ], [ 117.277162074142879, 4.154826976141131 ], [ 117.27715044190137, 4.154420138936255 ], [ 117.276622774644963, 4.154421476360897 ], [ 117.276630720016499, 4.154816091925608 ] ] ] ] } },
{ "type": "Feature", "properties": { "id": 1073, "area": 0.183869, "Nama_Obj": "Pemukiman", "Keterangan": "Tempat tinggal warga Desa Srinanti", "Kelas_Obj": "Bangunan" }, "geometry": { "type": "MultiPolygon", "coordinates": [ [ [ [ 117.276622774644963, 4.154421476360897 ], [ 117.27715044190137, 4.154420138936255 ], [ 117.277149500465399, 4.154137695027438 ], [ 117.276616592765791, 4.154139114856916 ], [ 117.276622774644963, 4.154421476360897 ] ] ] ] } },
{ "type": "Feature", "properties": { "id": 1074, "area": 0.160165, "Nama_Obj": "Pemukiman", "Keterangan": "Tempat tinggal warga Desa Srinanti", "Kelas_Obj": "Bangunan" }, "geometry": { "type": "MultiPolygon", "coordinates": [ [ [ [ 117.276616592765791, 4.154139114856916 ], [ 117.277149500465399, 4.154137695027438 ], [ 117.277147363357173, 4.153890358104811 ], [ 117.276618004670553, 4.153895230059725 ], [ 117.276616592765791, 4.154139114856916 ] ] ] ] } },
{ "type": "Feature", "properties": { "id": 1075, "area": 0.078884, "Nama_Obj": "Pemukiman", "Keterangan": "Tempat tinggal warga Desa Srinanti", "Kelas_Obj": "Bangunan" }, "geometry": { "type": "MultiPolygon", "coordinates": [ [ [ [ 117.276618004670553, 4.153895230059725 ], [ 117.276909733188532, 4.153890611483649 ], [ 117.276913305247973, 4.153673008826674 ], [ 117.276621494186244, 4.153672365252707 ], [ 117.276618004670553, 4.153895230059725 ] ] ] ] } },
{ "type": "Feature", "properties": { "id": 1076, "area": 0.093091, "Nama_Obj": "Pemukiman", "Keterangan": "Tempat tinggal warga Desa Srinanti", "Kelas_Obj": "Bangunan" }, "geometry": { "type": "MultiPolygon", "coordinates": [ [ [ [ 117.276621494186244, 4.153672365252707 ], [ 117.276913305247973, 4.153673008826674 ], [ 117.276921594818603, 4.153421997825259 ], [ 117.276617445559211, 4.153414531664795 ], [ 117.276621494186244, 4.153672365252707 ] ] ] ] } },
{ "type": "Feature", "properties": { "id": 1077, "area": 0.078619, "Nama_Obj": "Pemukiman", "Keterangan": "Tempat tinggal warga Desa Srinanti", "Kelas_Obj": "Bangunan" }, "geometry": { "type": "MultiPolygon", "coordinates": [ [ [ [ 117.276617445559211, 4.153414531664795 ], [ 117.276921594818603, 4.153421997825259 ], [ 117.276932237376329, 4.153209546483969 ], [ 117.276626423961986, 4.153207369643506 ], [ 117.276617445559211, 4.153414531664795 ] ] ] ] } },
{ "type": "Feature", "properties": { "id": 1078, "area": 0.076698, "Nama_Obj": "Pemukiman", "Keterangan": "Tempat tinggal warga Desa Srinanti", "Kelas_Obj": "Bangunan" }, "geometry": { "type": "MultiPolygon", "coordinates": [ [ [ [ 117.276626423961986, 4.153207369643506 ], [ 117.276932237376329, 4.153209546483969 ], [ 117.276933423752993, 4.153006894063001 ], [ 117.276626695678146, 4.15300209985736 ], [ 117.276626423961986, 4.153207369643506 ] ] ] ] } },
{ "type": "Feature", "properties": { "id": 1079, "area": 0.086872, "Nama_Obj": "Pemukiman", "Keterangan": "Tempat tinggal warga Desa Srinanti", "Kelas_Obj": "Bangunan" }, "geometry": { "type": "MultiPolygon", "coordinates": [ [ [ [ 117.276626695678146, 4.15300209985736 ], [ 117.276933423752993, 4.153006894063001 ], [ 117.276934974279897, 4.152771779414505 ], [ 117.276628383989035, 4.152775754785046 ], [ 117.276626695678146, 4.15300209985736 ] ] ] ] } },
{ "type": "Feature", "properties": { "id": 1080, "area": 0.083281, "Nama_Obj": "Pemukiman", "Keterangan": "Tempat tinggal warga Desa Srinanti", "Kelas_Obj": "Bangunan" }, "geometry": { "type": "MultiPolygon", "coordinates": [ [ [ [ 117.276628383989035, 4.152775754785046 ], [ 117.276934974279897, 4.152771779414505 ], [ 117.276927997165942, 4.152549957767937 ], [ 117.276629199054568, 4.152549423540899 ], [ 117.276628383989035, 4.152775754785046 ] ] ] ] } },
{ "type": "Feature", "properties": { "id": 1081, "area": 0.081287, "Nama_Obj": "Pemukiman", "Keterangan": "Tempat tinggal warga Desa Srinanti", "Kelas_Obj": "Bangunan" }, "geometry": { "type": "MultiPolygon", "coordinates": [ [ [ [ 117.276629199054568, 4.152549423540899 ], [ 117.276927997165942, 4.152549957767937 ], [ 117.276931515245636, 4.152328847218597 ], [ 117.276624065452651, 4.152333712878918 ], [ 117.276629199054568, 4.152549423540899 ] ] ] ] } },
{ "type": "Feature", "properties": { "id": 1082, "area": 0.080664, "Nama_Obj": "Pemukiman", "Keterangan": "Tempat tinggal warga Desa Srinanti", "Kelas_Obj": "Bangunan" }, "geometry": { "type": "MultiPolygon", "coordinates": [ [ [ [ 117.276624065452651, 4.152333712878918 ], [ 117.276931515245636, 4.152328847218597 ], [ 117.276926409277479, 4.152114890772109 ], [ 117.27662242577793, 4.152117946922068 ], [ 117.276624065452651, 4.152333712878918 ] ] ] ] } },
{ "type": "Feature", "properties": { "id": 1083, "area": 0.100003, "Nama_Obj": "Pemukiman", "Keterangan": "Tempat tinggal warga Desa Srinanti", "Kelas_Obj": "Bangunan" }, "geometry": { "type": "MultiPolygon", "coordinates": [ [ [ [ 117.27662242577793, 4.152117946922068 ], [ 117.276926409277479, 4.152114890772109 ], [ 117.276932623056709, 4.151842859873516 ], [ 117.276623591762061, 4.151858276428297 ], [ 117.27662242577793, 4.152117946922068 ] ] ] ] } },
{ "type": "Feature", "properties": { "id": 1084, "area": 0.080531, "Nama_Obj": "Toko", "Keterangan": "Warung Sembako", "Kelas_Obj": "Bangunan" }, "geometry": { "type": "MultiPolygon", "coordinates": [ [ [ [ 117.278097469852952, 4.154808654028964 ], [ 117.278481781069942, 4.154802567597899 ], [ 117.278482602105186, 4.154632378395438 ], [ 117.278100010289677, 4.15463668295398 ], [ 117.278097469852952, 4.154808654028964 ] ] ] ] } },
{ "type": "Feature", "properties": { "id": 1085, "area": 0.091415, "Nama_Obj": "Pemukiman", "Keterangan": "Tempat tinggal warga Desa Srinanti", "Kelas_Obj": "Bangunan" }, "geometry": { "type": "MultiPolygon", "coordinates": [ [ [ [ 117.278100010289677, 4.15463668295398 ], [ 117.278482602105186, 4.154632378395438 ], [ 117.278475967400183, 4.154432482572659 ], [ 117.278107405731504, 4.154440073455108 ], [ 117.278100010289677, 4.15463668295398 ] ] ] ] } },
{ "type": "Feature", "properties": { "id": 1086, "area": 0.121519, "Nama_Obj": "Pemukiman", "Keterangan": "Tempat tinggal warga Desa Srinanti", "Kelas_Obj": "Bangunan" }, "geometry": { "type": "MultiPolygon", "coordinates": [ [ [ [ 117.278107405731504, 4.154440073455108 ], [ 117.278475967400183, 4.154432482572659 ], [ 117.278476965177219, 4.154162290130447 ], [ 117.278103273223223, 4.154176979457382 ], [ 117.278107405731504, 4.154440073455108 ] ] ] ] } },
{ "type": "Feature", "properties": { "id": 1087, "area": 0.083735, "Nama_Obj": "Pemukiman", "Keterangan": "Tempat tinggal warga Desa Srinanti", "Kelas_Obj": "Bangunan" }, "geometry": { "type": "MultiPolygon", "coordinates": [ [ [ [ 117.278103273223223, 4.154176979457382 ], [ 117.278476965177219, 4.154162290130447 ], [ 117.278474100050715, 4.153979878549247 ], [ 117.278103874361776, 4.153992758335915 ], [ 117.278103273223223, 4.154176979457382 ] ] ] ] } },
{ "type": "Feature", "properties": { "id": 1088, "area": 0.121095, "Nama_Obj": "Warung Makan", "Keterangan": "Warung Kedai Teras Nyammi", "Kelas_Obj": "Bangunan" }, "geometry": { "type": "MultiPolygon", "coordinates": [ [ [ [ 117.278103874361776, 4.153992758335915 ], [ 117.278474100050715, 4.153979878549247 ], [ 117.278466391508388, 4.153711578362312 ], [ 117.278106592042462, 4.153720783899615 ], [ 117.278103874361776, 4.153992758335915 ] ] ] ] } },
{ "type": "Feature", "properties": { "id": 1089, "area": 0.10837, "Nama_Obj": "Pemukiman", "Keterangan": "Tempat tinggal warga Desa Srinanti", "Kelas_Obj": "Bangunan" }, "geometry": { "type": "MultiPolygon", "coordinates": [ [ [ [ 117.278106592042462, 4.153720783899615 ], [ 117.278466391508388, 4.153711578362312 ], [ 117.278462535060086, 4.153466024297395 ], [ 117.278106201887354, 4.153473420224099 ], [ 117.278106592042462, 4.153720783899615 ] ] ] ] } },
{ "type": "Feature", "properties": { "id": 1090, "area": 0.106291, "Nama_Obj": "Atraksi", "Keterangan": "Sajra Playstation", "Kelas_Obj": "Bangunan" }, "geometry": { "type": "MultiPolygon", "coordinates": [ [ [ [ 117.278106201887354, 4.153473420224099 ], [ 117.278462535060086, 4.153466024297395 ], [ 117.278455240199875, 4.153224033453606 ], [ 117.278104065096471, 4.15322608420471 ], [ 117.278106201887354, 4.153473420224099 ] ] ] ] } },
{ "type": "Feature", "properties": { "id": 1091, "area": 0.106166, "Nama_Obj": "Pemukiman", "Keterangan": "Tempat tinggal warga Desa Srinanti", "Kelas_Obj": "Bangunan" }, "geometry": { "type": "MultiPolygon", "coordinates": [ [ [ [ 117.278104065096471, 4.15322608420471 ], [ 117.278455240199875, 4.153224033453606 ], [ 117.27845738806559, 4.152971366756168 ], [ 117.278108138964441, 4.152984790257833 ], [ 117.278104065096471, 4.15322608420471 ] ] ] ] } },
{ "type": "Feature", "properties": { "id": 1092, "area": 0.149201, "Nama_Obj": "Penginapan", "Keterangan": "Penginapan", "Kelas_Obj": "Bangunan" }, "geometry": { "type": "MultiPolygon", "coordinates": [ [ [ [ 117.278108138964441, 4.152984790257833 ], [ 117.27845738806559, 4.152971366756168 ], [ 117.278450215668869, 4.152625864739508 ], [ 117.278101757515813, 4.15263401207339 ], [ 117.278108138964441, 4.152984790257833 ] ] ] ] } },
{ "type": "Feature", "properties": { "id": 1093, "area": 0.124408, "Nama_Obj": "Pemukiman", "Keterangan": "Tempat tinggal warga Desa Srinanti", "Kelas_Obj": "Bangunan" }, "geometry": { "type": "MultiPolygon", "coordinates": [ [ [ [ 117.278101757515813, 4.15263401207339 ], [ 117.278450215668869, 4.152625864739508 ], [ 117.278434997851676, 4.152324349900397 ], [ 117.278103258941542, 4.152340126985403 ], [ 117.278101757515813, 4.15263401207339 ] ] ] ] } },
{ "type": "Feature", "properties": { "id": 1094, "area": 0.09088, "Nama_Obj": "Pemukiman", "Keterangan": "Tempat tinggal warga Desa Srinanti", "Kelas_Obj": "Bangunan" }, "geometry": { "type": "MultiPolygon", "coordinates": [ [ [ [ 117.278103258941542, 4.152340126985403 ], [ 117.278434997851676, 4.152324349900397 ], [ 117.278435922901579, 4.152105036046144 ], [ 117.27810320050142, 4.15211381083791 ], [ 117.278103258941542, 4.152340126985403 ] ] ] ] } },
{ "type": "Feature", "properties": { "id": 1095, "area": 0.105412, "Nama_Obj": "Pemukiman", "Keterangan": "Tempat tinggal warga Desa Srinanti", "Kelas_Obj": "Bangunan" }, "geometry": { "type": "MultiPolygon", "coordinates": [ [ [ [ 117.27810320050142, 4.15211381083791 ], [ 117.278435922901579, 4.152105036046144 ], [ 117.278430585722944, 4.151848540440755 ], [ 117.278098681784613, 4.151853793162545 ], [ 117.27810320050142, 4.15211381083791 ] ] ] ] } },
{ "type": "Feature", "properties": { "id": 1096, "area": 0.167677, "Nama_Obj": "Warung Makan", "Keterangan": "Warung Makan Nirnas", "Kelas_Obj": "Bangunan" }, "geometry": { "type": "MultiPolygon", "coordinates": [ [ [ [ 117.274600990838962, 4.155511620152445 ], [ 117.275094092915836, 4.155506443348108 ], [ 117.275097038852792, 4.155235120063852 ], [ 117.274607009210413, 4.155227308870457 ], [ 117.274600990838962, 4.155511620152445 ] ] ] ] } },
{ "type": "Feature", "properties": { "id": 1097, "area": 0.146405, "Nama_Obj": "Pemukiman", "Keterangan": "Tempat tinggal warga Desa Srinanti", "Kelas_Obj": "Bangunan" }, "geometry": { "type": "MultiPolygon", "coordinates": [ [ [ [ 117.274607009210413, 4.155227308870457 ], [ 117.275097038852792, 4.155235120063852 ], [ 117.275090401869406, 4.154993334998699 ], [ 117.274604871891725, 4.154979969548195 ], [ 117.274607009210413, 4.155227308870457 ] ] ] ] } },
{ "type": "Feature", "properties": { "id": 1098, "area": 0.12274, "Nama_Obj": "Pemukiman", "Keterangan": "Tempat tinggal warga Desa Srinanti", "Kelas_Obj": "Bangunan" }, "geometry": { "type": "MultiPolygon", "coordinates": [ [ [ [ 117.274604871891725, 4.154979969548195 ], [ 117.275090401869406, 4.154993334998698 ], [ 117.275078361747362, 4.154782995666855 ], [ 117.274605115240121, 4.154772944186418 ], [ 117.274604871891725, 4.154979969548195 ] ] ] ] } },
{ "type": "Feature", "properties": { "id": 1099, "area": 0.120352, "Nama_Obj": "Pemukiman", "Keterangan": "Tempat tinggal warga Desa Srinanti", "Kelas_Obj": "Bangunan" }, "geometry": { "type": "MultiPolygon", "coordinates": [ [ [ [ 117.274605115240121, 4.154772944186418 ], [ 117.275078361747362, 4.154782995666855 ], [ 117.275082071354774, 4.154574161385177 ], [ 117.274608880080578, 4.154567617498309 ], [ 117.274605115240121, 4.154772944186418 ] ] ] ] } },
{ "type": "Feature", "properties": { "id": 1100, "area": 0.134866, "Nama_Obj": "Pemukiman", "Keterangan": "Tempat tinggal warga Desa Srinanti", "Kelas_Obj": "Bangunan" }, "geometry": { "type": "MultiPolygon", "coordinates": [ [ [ [ 117.274608880080578, 4.154567617498309 ], [ 117.275082071354774, 4.154574161385177 ], [ 117.275090553550939, 4.154335426480775 ], [ 117.274619302137282, 4.154341132399153 ], [ 117.274608880080578, 4.154567617498309 ] ] ] ] } },
{ "type": "Feature", "properties": { "id": 1101, "area": 0.121123, "Nama_Obj": "Pemukiman", "Keterangan": "Tempat tinggal warga Desa Srinanti", "Kelas_Obj": "Bangunan" }, "geometry": { "type": "MultiPolygon", "coordinates": [ [ [ [ 117.274619302137282, 4.154341132399153 ], [ 117.275090553550939, 4.154335426480775 ], [ 117.275083754628739, 4.15412500416193 ], [ 117.274617744005852, 4.154130626740197 ], [ 117.274619302137282, 4.154341132399153 ] ] ] ] } },
{ "type": "Feature", "properties": { "id": 1102, "area": 0.119266, "Nama_Obj": "Pemukiman", "Keterangan": "Tempat tinggal warga Desa Srinanti", "Kelas_Obj": "Bangunan" }, "geometry": { "type": "MultiPolygon", "coordinates": [ [ [ [ 117.274617744005852, 4.154130626740197 ], [ 117.275083754628739, 4.15412500416193 ], [ 117.275082169002332, 4.153912744895806 ], [ 117.274621481797254, 4.153923546092349 ], [ 117.274617744005852, 4.154130626740197 ] ] ] ] } },
{ "type": "Feature", "properties": { "id": 1103, "area": 0.129014, "Nama_Obj": "Pemukiman", "Keterangan": "Tempat tinggal warga Desa Srinanti", "Kelas_Obj": "Bangunan" }, "geometry": { "type": "MultiPolygon", "coordinates": [ [ [ [ 117.274621481797254, 4.153923546092349 ], [ 117.275082169002332, 4.153912744895806 ], [ 117.275076924534758, 4.153690017049008 ], [ 117.274616072217128, 4.153690293951747 ], [ 117.274621481797254, 4.153923546092349 ] ] ] ] } },
{ "type": "Feature", "properties": { "id": 1104, "area": 0.133591, "Nama_Obj": "Toko", "Keterangan": "Barbershop Bang Naff", "Kelas_Obj": "Bangunan" }, "geometry": { "type": "MultiPolygon", "coordinates": [ [ [ [ 117.274616072217128, 4.153690293951747 ], [ 117.275076924534758, 4.153690017049008 ], [ 117.275071487493264, 4.153455011332427 ], [ 117.274611467449191, 4.153452643020584 ], [ 117.274616072217128, 4.153690293951747 ] ] ] ] } },
{ "type": "Feature", "properties": { "id": 1105, "area": 0.105373, "Nama_Obj": "Cafe", "Keterangan": "Cafe Khanza", "Kelas_Obj": "Bangunan" }, "geometry": { "type": "MultiPolygon", "coordinates": [ [ [ [ 117.274611467449191, 4.153452643020584 ], [ 117.275071487493264, 4.153455011332427 ], [ 117.27507026038046, 4.153265553802427 ], [ 117.27461380307011, 4.153267514822654 ], [ 117.274611467449191, 4.153452643020584 ] ] ] ] } },
{ "type": "Feature", "properties": { "id": 1106, "area": 0.19625, "Nama_Obj": "Pemukiman", "Keterangan": "Tempat tinggal warga Desa Srinanti", "Kelas_Obj": "Bangunan" }, "geometry": { "type": "MultiPolygon", "coordinates": [ [ [ [ 117.27461380307011, 4.153267514822654 ], [ 117.275119173219892, 4.153264779650866 ], [ 117.275124835827725, 4.152957667258502 ], [ 117.274607932141066, 4.152949180644565 ], [ 117.27461380307011, 4.153267514822654 ] ] ] ] } },
{ "type": "Feature", "properties": { "id": 1107, "area": 0.122152, "Nama_Obj": "Pemukiman", "Keterangan": "Tempat tinggal warga Desa Srinanti", "Kelas_Obj": "Bangunan" }, "geometry": { "type": "MultiPolygon", "coordinates": [ [ [ [ 117.274607932141066, 4.152949180644565 ], [ 117.275056624652308, 4.152953483519632 ], [ 117.275054764645617, 4.152723684428096 ], [ 117.274617592241285, 4.152729725377275 ], [ 117.274607932141066, 4.152949180644565 ] ] ] ] } },
{ "type": "Feature", "properties": { "id": 1108, "area": 0.105372, "Nama_Obj": "Pemukiman", "Keterangan": "Tempat tinggal warga Desa Srinanti", "Kelas_Obj": "Bangunan" }, "geometry": { "type": "MultiPolygon", "coordinates": [ [ [ [ 117.274617592241285, 4.152729725377275 ], [ 117.275054764645617, 4.152723684428096 ], [ 117.275053510529261, 4.152532472906963 ], [ 117.274620082897215, 4.152526611953905 ], [ 117.274617592241285, 4.152729725377275 ] ] ] ] } },
{ "type": "Feature", "properties": { "id": 1109, "area": 0.117114, "Nama_Obj": "Pemukiman", "Keterangan": "Tempat tinggal warga Desa Srinanti", "Kelas_Obj": "Bangunan" }, "geometry": { "type": "MultiPolygon", "coordinates": [ [ [ [ 117.274620082897215, 4.152526611953905 ], [ 117.275053510529261, 4.152532472906963 ], [ 117.275057001665317, 4.152309606809851 ], [ 117.274619760671385, 4.152311262113076 ], [ 117.274620082897215, 4.152526611953905 ] ] ] ] } },
{ "type": "Feature", "properties": { "id": 1110, "area": 0.10068, "Nama_Obj": "Pemukiman", "Keterangan": "Tempat tinggal warga Desa Srinanti", "Kelas_Obj": "Bangunan" }, "geometry": { "type": "MultiPolygon", "coordinates": [ [ [ [ 117.274619760671385, 4.152311262113076 ], [ 117.275057001665317, 4.152309606809851 ], [ 117.275048732779538, 4.152116751872758 ], [ 117.274620336432079, 4.152125284586466 ], [ 117.274619760671385, 4.152311262113076 ] ] ] ] } },
{ "type": "Feature", "properties": { "id": 1111, "area": 0.140271, "Nama_Obj": "Pemukiman", "Keterangan": "Tempat tinggal warga Desa Srinanti", "Kelas_Obj": "Bangunan" }, "geometry": { "type": "MultiPolygon", "coordinates": [ [ [ [ 117.274620336432079, 4.152125284586466 ], [ 117.275106324917289, 4.152112331772646 ], [ 117.275106184983855, 4.151880751106203 ], [ 117.274616620282174, 4.151888496817553 ], [ 117.274620336432079, 4.152125284586466 ] ] ] ] } },
{ "type": "Feature", "properties": { "id": 1112, "area": 0.263502, "Nama_Obj": "Masjid", "Keterangan": "Masjid Baiturrahman Sei Menggaris", "Kelas_Obj": "Bangunan" }, "geometry": { "type": "MultiPolygon", "coordinates": [ [ [ [ 117.278565414541802, 4.155524272400907 ], [ 117.279057865746182, 4.15550594531518 ], [ 117.279044098850591, 4.155074583412035 ], [ 117.278561853516521, 4.155075204103813 ], [ 117.278565414541802, 4.155524272400907 ] ] ] ] } },
{ "type": "Feature", "properties": { "id": 1113, "area": 0.050994, "Nama_Obj": "Sekolah", "Keterangan": "SD Negeri 003 Sei Menggaris", "Kelas_Obj": "Bangunan" }, "geometry": { "type": "MultiPolygon", "coordinates": [ [ [ [ 117.279231355524658, 4.155260214189217 ], [ 117.279375513093285, 4.155260562270404 ], [ 117.27937533314099, 4.154971091109462 ], [ 117.279231216963154, 4.154973373798078 ], [ 117.279231355524658, 4.155260214189217 ] ] ] ] } },
{ "type": "Feature", "properties": { "id": 1114, "area": 0.045825, "Nama_Obj": "Pemukiman", "Keterangan": "Tempat tinggal warga Desa Srinanti", "Kelas_Obj": "Bangunan" }, "geometry": { "type": "MultiPolygon", "coordinates": [ [ [ [ 117.279256941859231, 4.154970334754485 ], [ 117.279589677724047, 4.154962432848937 ], [ 117.27959271792264, 4.154850103959427 ], [ 117.279263025339446, 4.1548570803287 ], [ 117.279256941859231, 4.154970334754485 ] ] ] ] } },
{ "type": "Feature", "properties": { "id": 1115, "area": 0.035603, "Nama_Obj": "Pemukiman", "Keterangan": "Tempat tinggal warga Desa Srinanti", "Kelas_Obj": "Bangunan" }, "geometry": { "type": "MultiPolygon", "coordinates": [ [ [ [ 117.279777284957561, 4.155392794375457 ], [ 117.280000133605029, 4.155397158825889 ], [ 117.280003320882955, 4.155266406739525 ], [ 117.279781359488936, 4.155262905317628 ], [ 117.279777284957561, 4.155392794375457 ] ] ] ] } },
{ "type": "Feature", "properties": { "id": 1116, "area": 0.026374, "Nama_Obj": "Pemukiman", "Keterangan": "Tempat tinggal warga Desa Srinanti", "Kelas_Obj": "Bangunan" }, "geometry": { "type": "MultiPolygon", "coordinates": [ [ [ [ 117.280069038062337, 4.155389926913032 ], [ 117.280205306775571, 4.155388645347273 ], [ 117.280208926473534, 4.155229816392538 ], [ 117.280076983594597, 4.155228397775554 ], [ 117.280069038062337, 4.155389926913032 ] ] ] ] } },
{ "type": "Feature", "properties": { "id": 1117, "area": 0.031557, "Nama_Obj": "Gedung Kecamatan", "Keterangan": "Gedung Kecamatan", "Kelas_Obj": "Bangunan" }, "geometry": { "type": "MultiPolygon", "coordinates": [ [ [ [ 117.280066402775375, 4.155111021702812 ], [ 117.280204349398176, 4.155105327745588 ], [ 117.280203230078541, 4.154922889703335 ], [ 117.280063453951385, 4.154923349394489 ], [ 117.280066402775375, 4.155111021702812 ] ] ] ] } },
{ "type": "Feature", "properties": { "id": 1118, "area": 0.026384, "Nama_Obj": "KopDes", "Keterangan": "KopDes Merah Putih", "Kelas_Obj": "Bangunan" }, "geometry": { "type": "MultiPolygon", "coordinates": [ [ [ [ 117.279905282938699, 4.154753925146018 ], [ 117.280069597792576, 4.154758340046087 ], [ 117.280077984605953, 4.15462487407943 ], [ 117.279906847693582, 4.154631093457072 ], [ 117.279905282938699, 4.154753925146018 ] ] ] ] } },
{ "type": "Feature", "properties": { "id": 1119, "area": 0.047188, "Nama_Obj": "Pemukiman", "Keterangan": "Tempat tinggal warga Desa Srinanti", "Kelas_Obj": "Bangunan" }, "geometry": { "type": "MultiPolygon", "coordinates": [ [ [ [ 117.279591090416062, 4.154551884041696 ], [ 117.279788320179264, 4.154538233977894 ], [ 117.279785316720876, 4.154347053569864 ], [ 117.27959141539236, 4.154350124458368 ], [ 117.279591090416062, 4.154551884041696 ] ] ] ] } },
{ "type": "Feature", "properties": { "id": 1120, "area": 0.025765, "Nama_Obj": "Pemukiman", "Keterangan": "Tempat tinggal warga Desa Srinanti", "Kelas_Obj": "Bangunan" }, "geometry": { "type": "MultiPolygon", "coordinates": [ [ [ [ 117.280050395589967, 4.154481451623099 ], [ 117.280183156664393, 4.15447934889393 ], [ 117.280191268042998, 4.15432834353403 ], [ 117.280054861735707, 4.154320854813027 ], [ 117.280050395589967, 4.154481451623099 ] ] ] ] } },
{ "type": "Feature", "properties": { "id": 1121, "area": 0.118315, "Nama_Obj": "Kantor Kecamatan", "Keterangan": "Kantor Kecamatan Desa", "Kelas_Obj": "Bangunan" }, "geometry": { "type": "MultiPolygon", "coordinates": [ [ [ [ 117.279760472165805, 4.154211482188058 ], [ 117.280050560652199, 4.154213905549734 ], [ 117.280060992251421, 4.153876898762863 ], [ 117.279777918888271, 4.153876118331354 ], [ 117.279760472165805, 4.154211482188058 ] ] ] ] } },
{ "type": "Feature", "properties": { "id": 1122, "area": 0.027373, "Nama_Obj": "Pemukiman", "Keterangan": "Tempat tinggal warga Desa Srinanti", "Kelas_Obj": "Bangunan" }, "geometry": { "type": "MultiPolygon", "coordinates": [ [ [ [ 117.279940183696752, 4.15386126804854 ], [ 117.280181277272959, 4.153859204467993 ], [ 117.280183365862399, 4.153769697891972 ], [ 117.279940442808524, 4.153766527210359 ], [ 117.279940183696752, 4.15386126804854 ] ] ] ] } },
{ "type": "Feature", "properties": { "id": 1123, "area": 0.159826, "Nama_Obj": "Pasar", "Keterangan": "Pasar", "Kelas_Obj": "Bangunan" }, "geometry": { "type": "MultiPolygon", "coordinates": [ [ [ [ 117.278556713810687, 4.153997210835717 ], [ 117.279016194158643, 4.153993443821311 ], [ 117.279018691116818, 4.153707438694561 ], [ 117.278559293583882, 4.153716467081386 ], [ 117.278556713810687, 4.153997210835717 ] ] ] ] } },
{ "type": "Feature", "properties": { "id": 1124, "area": 0.14759, "Nama_Obj": "Pemukiman", "Keterangan": "Tempat tinggal warga Desa Srinanti", "Kelas_Obj": "Bangunan" }, "geometry": { "type": "MultiPolygon", "coordinates": [ [ [ [ 117.279016194158643, 4.153993443821311 ], [ 117.279014496795284, 4.154052242769689 ], [ 117.279355300098771, 4.154057372280714 ], [ 117.279367217377015, 4.153703674419681 ], [ 117.279018691116818, 4.153707438694561 ], [ 117.279016194158643, 4.153993443821311 ] ] ] ] } },
{ "type": "Feature", "properties": { "id": 1125, "area": 0.041346, "Nama_Obj": "Cafe", "Keterangan": "Kupikuu Cafe", "Kelas_Obj": "Bangunan" }, "geometry": { "type": "MultiPolygon", "coordinates": [ [ [ [ 117.278583259554026, 4.153629245164196 ], [ 117.278841850483076, 4.153628659586451 ], [ 117.278838037616637, 4.153497140613681 ], [ 117.278584687321427, 4.153497643088085 ], [ 117.278583259554026, 4.153629245164196 ] ] ] ] } },
{ "type": "Feature", "properties": { "id": 1126, "area": 0.111295, "Nama_Obj": "Pemukiman", "Keterangan": "Tempat tinggal warga Desa Srinanti", "Kelas_Obj": "Bangunan" }, "geometry": { "type": "MultiPolygon", "coordinates": [ [ [ [ 117.278909923032202, 4.153624072973464 ], [ 117.279476043583699, 4.153623880979173 ], [ 117.279468103309497, 4.153452076775712 ], [ 117.278911047733885, 4.153473177559572 ], [ 117.278909923032202, 4.153624072973464 ] ] ] ] } },
{ "type": "Feature", "properties": { "id": 1127, "area": 0.124654, "Nama_Obj": "Warung Makan", "Keterangan": "Warung Nasi Mamam Nilam", "Kelas_Obj": "Bangunan" }, "geometry": { "type": "MultiPolygon", "coordinates": [ [ [ [ 117.278636349512581, 4.153449456535384 ], [ 117.279240433147407, 4.15341883944188 ], [ 117.279243277212174, 4.153266162609009 ], [ 117.27862305875027, 4.153270718912065 ], [ 117.278636349512581, 4.153449456535384 ] ] ] ] } },
{ "type": "Feature", "properties": { "id": 1128, "area": 0.245143, "Nama_Obj": "Puskesmas", "Keterangan": "UPT. Puskesmas Sei Menggaris", "Kelas_Obj": "Bangunan" }, "geometry": { "type": "MultiPolygon", "coordinates": [ [ [ [ 117.278551912963536, 4.152968335277346 ], [ 117.27903404680724, 4.152960702641991 ], [ 117.279034727173453, 4.152558936602969 ], [ 117.278541864545488, 4.152550948795271 ], [ 117.278551912963536, 4.152968335277346 ] ] ] ] } },
{ "type": "Feature", "properties": { "id": 1129, "area": 0.190438, "Nama_Obj": "Kantor Desa", "Keterangan": "Kantor Desa Srinanti", "Kelas_Obj": "Bangunan" }, "geometry": { "type": "MultiPolygon", "coordinates": [ [ [ [ 117.278529727449737, 4.152223069402956 ], [ 117.278974956543678, 4.152201987163242 ], [ 117.278964181076773, 4.15184952529788 ], [ 117.278536338150161, 4.151865068597075 ], [ 117.278529727449737, 4.152223069402956 ] ] ] ] } },
{ "type": "Feature", "properties": { "id": 1130, "area": 0.310976, "Nama_Obj": "Gereja", "Keterangan": "Gereja Oikumene Sei Menggaris", "Kelas_Obj": "Bangunan" }, "geometry": { "type": "MultiPolygon", "coordinates": [ [ [ [ 117.278974956543678, 4.152201987163242 ], [ 117.278973968828012, 4.152361652299851 ], [ 117.279447560025233, 4.15236643643591 ], [ 117.279479641405544, 4.151850138895475 ], [ 117.278964181076773, 4.15184952529788 ], [ 117.278974956543678, 4.152201987163242 ] ] ] ] } },
{ "type": "Feature", "properties": { "id": 1131, "area": 0.087037, "Nama_Obj": "Toko", "Keterangan": "Warung sembako Nikita", "Kelas_Obj": "Bangunan" }, "geometry": { "type": "MultiPolygon", "coordinates": [ [ [ [ 117.276241458184927, 4.155494413674185 ], [ 117.276552403416758, 4.155489489134 ], [ 117.276568174897605, 4.155269938524724 ], [ 117.276253515584216, 4.155260886360921 ], [ 117.276241458184927, 4.155494413674185 ] ] ] ] } },
{ "type": "Feature", "properties": { "id": 1132, "area": 0.097928, "Nama_Obj": "Pemukiman", "Keterangan": "Tempat tinggal warga Desa Srinanti", "Kelas_Obj": "Bangunan" }, "geometry": { "type": "MultiPolygon", "coordinates": [ [ [ [ 117.276253515584216, 4.155260886360921 ], [ 117.276568174897605, 4.155269938524724 ], [ 117.276551565942128, 4.154991250891697 ], [ 117.276260112125982, 4.155013410279864 ], [ 117.276253515584216, 4.155260886360921 ] ] ] ] } },
{ "type": "Feature", "properties": { "id": 1133, "area": 0.159566, "Nama_Obj": "Penginapan", "Keterangan": "Penginapan Bu Rusmini", "Kelas_Obj": "Bangunan" }, "geometry": { "type": "MultiPolygon", "coordinates": [ [ [ [ 117.276260112125982, 4.155013410279864 ], [ 117.276551565942128, 4.154991250891697 ], [ 117.276551721135263, 4.154556155589423 ], [ 117.276249703513542, 4.154573218535137 ], [ 117.276260112125982, 4.155013410279864 ] ] ] ] } },
{ "type": "Feature", "properties": { "id": 1134, "area": 0.090363, "Nama_Obj": "Pemukiman", "Keterangan": "Tempat tinggal warga Desa Srinanti", "Kelas_Obj": "Bangunan" }, "geometry": { "type": "MultiPolygon", "coordinates": [ [ [ [ 117.276249703513542, 4.154573218535137 ], [ 117.276551721135263, 4.154556155589423 ], [ 117.276537438307258, 4.154314273622886 ], [ 117.276250894771309, 4.154315301612849 ], [ 117.276249703513542, 4.154573218535137 ] ] ] ] } },
{ "type": "Feature", "properties": { "id": 1135, "area": 0.067414, "Nama_Obj": "Pemukiman", "Keterangan": "Tempat tinggal warga Desa Srinanti", "Kelas_Obj": "Bangunan" }, "geometry": { "type": "MultiPolygon", "coordinates": [ [ [ [ 117.276250894771309, 4.154315301612849 ], [ 117.276537438307258, 4.154314273622886 ], [ 117.276530749218566, 4.15411086835698 ], [ 117.276258401159239, 4.154125706650103 ], [ 117.276250894771309, 4.154315301612849 ] ] ] ] } },
{ "type": "Feature", "properties": { "id": 1136, "area": 0.077319, "Nama_Obj": "Pemukiman", "Keterangan": "Tempat tinggal warga Desa Srinanti", "Kelas_Obj": "Bangunan" }, "geometry": { "type": "MultiPolygon", "coordinates": [ [ [ [ 117.276530749218566, 4.15411086835698 ], [ 117.276546714627372, 4.153903595616666 ], [ 117.276256374518368, 4.153885384776262 ], [ 117.276258401159239, 4.154125706650103 ], [ 117.276530749218566, 4.15411086835698 ] ] ] ] } },
{ "type": "Feature", "properties": { "id": 1137, "area": 0.07541, "Nama_Obj": "Pemukiman", "Keterangan": "Tempat tinggal warga Desa Srinanti", "Kelas_Obj": "Bangunan" }, "geometry": { "type": "MultiPolygon", "coordinates": [ [ [ [ 117.276256374518368, 4.153885384776262 ], [ 117.276546714627372, 4.153903595616666 ], [ 117.276539612718324, 4.153673880792754 ], [ 117.276265380211512, 4.153679976427596 ], [ 117.276256374518368, 4.153885384776262 ] ] ] ] } },
{ "type": "Feature", "properties": { "id": 1138, "area": 0.083104, "Nama_Obj": "Pemukiman", "Keterangan": "Tempat tinggal warga Desa Srinanti", "Kelas_Obj": "Bangunan" }, "geometry": { "type": "MultiPolygon", "coordinates": [ [ [ [ 117.276539612718324, 4.153673880792754 ], [ 117.276555137801751, 4.153438544562238 ], [ 117.27627710868957, 4.153425401565912 ], [ 117.276265380211512, 4.153679976427596 ], [ 117.276539612718324, 4.153673880792754 ] ] ] ] } },
{ "type": "Feature", "properties": { "id": 1139, "area": 0.072932, "Nama_Obj": "Pemukiman", "Keterangan": "Tempat tinggal warga Desa Srinanti", "Kelas_Obj": "Bangunan" }, "geometry": { "type": "MultiPolygon", "coordinates": [ [ [ [ 117.27627710868957, 4.153425401565912 ], [ 117.276555137801751, 4.153438544562238 ], [ 117.27655248610894, 4.153214022520515 ], [ 117.276279973111826, 4.153218336057131 ], [ 117.27627710868957, 4.153425401565912 ] ] ] ] } },
{ "type": "Feature", "properties": { "id": 1140, "area": 0.088706, "Nama_Obj": "Pemukiman", "Keterangan": "Tempat tinggal warga Desa Srinanti", "Kelas_Obj": "Bangunan" }, "geometry": { "type": "MultiPolygon", "coordinates": [ [ [ [ 117.276279973111826, 4.153218336057131 ], [ 117.27655248610894, 4.153214022520515 ], [ 117.276554802861554, 4.152944245875737 ], [ 117.276287592553174, 4.152952422624602 ], [ 117.276279973111826, 4.153218336057131 ] ] ] ] } },
{ "type": "Feature", "properties": { "id": 1141, "area": 0.077602, "Nama_Obj": "Pemukiman", "Keterangan": "Tempat tinggal warga Desa Srinanti", "Kelas_Obj": "Bangunan" }, "geometry": { "type": "MultiPolygon", "coordinates": [ [ [ [ 117.276287592553174, 4.152952422624602 ], [ 117.276554802861554, 4.152944245875737 ], [ 117.276544555265417, 4.152708879020348 ], [ 117.2762824823984, 4.152710395188796 ], [ 117.276287592553174, 4.152952422624602 ] ] ] ] } },
{ "type": "Feature", "properties": { "id": 1142, "area": 0.064468, "Nama_Obj": "Pemukiman", "Keterangan": "Tempat tinggal warga Desa Srinanti", "Kelas_Obj": "Bangunan" }, "geometry": { "type": "MultiPolygon", "coordinates": [ [ [ [ 117.2762824823984, 4.152710395188796 ], [ 117.276544555265417, 4.152708879020348 ], [ 117.276549277182951, 4.152508801969834 ], [ 117.276284604722974, 4.152511674888495 ], [ 117.2762824823984, 4.152710395188796 ] ] ] ] } },
{ "type": "Feature", "properties": { "id": 1143, "area": 0.050166, "Nama_Obj": "Pemukiman", "Keterangan": "Tempat tinggal warga Desa Srinanti", "Kelas_Obj": "Bangunan" }, "geometry": { "type": "MultiPolygon", "coordinates": [ [ [ [ 117.276284604722974, 4.152511674888495 ], [ 117.276549277182951, 4.152508801969834 ], [ 117.276548129919519, 4.152352239367517 ], [ 117.276288718792642, 4.152356344672751 ], [ 117.276284604722974, 4.152511674888495 ] ] ] ] } },
{ "type": "Feature", "properties": { "id": 1144, "area": 0.151238, "Nama_Obj": "Pemukiman", "Keterangan": "Tempat tinggal warga Desa Srinanti", "Kelas_Obj": "Bangunan" }, "geometry": { "type": "MultiPolygon", "coordinates": [ [ [ [ 117.276288718792642, 4.152356344672751 ], [ 117.276548129919519, 4.152352239367517 ], [ 117.276560557118188, 4.152058618271165 ], [ 117.276128329165317, 4.152073352805282 ], [ 117.276126176569207, 4.152353653710479 ], [ 117.276288718792642, 4.152356344672751 ] ] ] ] } },
{ "type": "Feature", "properties": { "id": 1145, "area": 0.075377, "Nama_Obj": "Pemukiman", "Keterangan": "Tempat tinggal warga Desa Srinanti", "Kelas_Obj": "Bangunan" }, "geometry": { "type": "MultiPolygon", "coordinates": [ [ [ [ 117.276560557118188, 4.152058618271165 ], [ 117.276560059543129, 4.151859939653361 ], [ 117.276256000011202, 4.151858171940317 ], [ 117.276260572516279, 4.152065996947144 ], [ 117.276560557118188, 4.152058618271165 ] ] ] ] } },
{ "type": "Feature", "properties": { "id": 1146, "area": 0.126442, "Nama_Obj": "Musholla", "Keterangan": "Musholla Al-Amin (LDII)", "Kelas_Obj": "Bangunan" }, "geometry": { "type": "MultiPolygon", "coordinates": [ [ [ [ 117.28189934487088, 4.154835495210065 ], [ 117.282299220498331, 4.154819511186713 ], [ 117.282305787760691, 4.154570286827813 ], [ 117.281987586753289, 4.154557783903312 ], [ 117.281916448447447, 4.154589612310573 ], [ 117.28189934487088, 4.154835495210065 ] ] ] ] } },
{ "type": "Feature", "properties": { "id": 1147, "area": 0.031855, "Nama_Obj": "Sekolah", "Keterangan": "Paud 'Citra Ananda'", "Kelas_Obj": "Bangunan" }, "geometry": { "type": "MultiPolygon", "coordinates": [ [ [ [ 117.280434579293399, 4.153911333272709 ], [ 117.28059878341098, 4.153908732801717 ], [ 117.280596248593369, 4.153747370019561 ], [ 117.280442470519574, 4.153746296520474 ], [ 117.280434579293399, 4.153911333272709 ] ] ] ] } },
{ "type": "Feature", "properties": { "id": 1148, "area": 0.043458, "Nama_Obj": "Musholla", "Keterangan": "Musholla Nurul Iman", "Kelas_Obj": "Bangunan" }, "geometry": { "type": "MultiPolygon", "coordinates": [ [ [ [ 117.281271650567462, 4.152027912617097 ], [ 117.28146729692412, 4.152024815374173 ], [ 117.28146085628407, 4.15183719936331 ], [ 117.281272307502334, 4.151847201610331 ], [ 117.281271650567462, 4.152027912617097 ] ] ] ] } },
{ "type": "Feature", "properties": { "id": 1149, "area": 0.048569, "Nama_Obj": "Penginapan", "Keterangan": "Penginapan", "Kelas_Obj": "Bangunan" }, "geometry": { "type": "MultiPolygon", "coordinates": [ [ [ [ 117.278542715302848, 4.151492159177027 ], [ 117.278675311447941, 4.151479534474438 ], [ 117.278675917165486, 4.151518121512586 ], [ 117.278805074593492, 4.151509059980243 ], [ 117.278792005397079, 4.151344354032784 ], [ 117.278536963975611, 4.151348389974413 ], [ 117.278542715302848, 4.151492159177027 ] ] ] ] } },
{ "type": "Feature", "properties": { "id": 1150, "area": 0.046733, "Nama_Obj": "Bank", "Keterangan": "Kantor Bankaltimtara", "Kelas_Obj": "Bangunan" }, "geometry": { "type": "MultiPolygon", "coordinates": [ [ [ [ 117.278867771830676, 4.151718594653516 ], [ 117.279059871126165, 4.151712045624137 ], [ 117.279060225939133, 4.151512039610688 ], [ 117.278871620405738, 4.151518533203864 ], [ 117.278867771830676, 4.151718594653516 ] ] ] ] } },
{ "type": "Feature", "properties": { "id": 1151, "area": 0.111649, "Nama_Obj": "Kantor BUMDes", "Keterangan": "Kantor BUMDes Sinarjaya", "Kelas_Obj": "Bangunan" }, "geometry": { "type": "MultiPolygon", "coordinates": [ [ [ [ 117.274128019834791, 4.1517628908802 ], [ 117.274489708445671, 4.151762432072482 ], [ 117.274499802617896, 4.15151489919443 ], [ 117.274134537791184, 4.151510150975332 ], [ 117.274128019834791, 4.1517628908802 ] ] ] ] } },
{ "type": "Feature", "properties": { "id": 1152, "area": 0.046098, "Nama_Obj": "Toko", "Keterangan": "Bengkel Motor", "Kelas_Obj": "Bangunan" }, "geometry": { "type": "MultiPolygon", "coordinates": [ [ [ [ 117.280398317167936, 4.155718042894962 ], [ 117.280397452380896, 4.155774196796819 ], [ 117.280593183011334, 4.155776358811551 ], [ 117.280595474155376, 4.155588603856765 ], [ 117.280397886465494, 4.1555794536001 ], [ 117.280398317167936, 4.155718042894962 ] ] ] ] } },
{ "type": "Feature", "properties": { "id": 1153, "area": 0.235985, "Nama_Obj": "Pemukiman", "Keterangan": "Tempat tinggal warga Desa Srinanti", "Kelas_Obj": "Bangunan" }, "geometry": { "type": "MultiPolygon", "coordinates": [ [ [ [ 117.280667012689932, 4.1541365987414 ], [ 117.281131950411918, 4.154146778738658 ], [ 117.281118019364996, 4.153704896588195 ], [ 117.280684966049662, 4.153722280940663 ], [ 117.280667012689932, 4.1541365987414 ] ] ] ] } },
{ "type": "Feature", "properties": { "id": 1154, "area": 0.069804, "Nama_Obj": "Pemukiman", "Keterangan": "Tempat tinggal warga Desa Srinanti", "Kelas_Obj": "Bangunan" }, "geometry": { "type": "MultiPolygon", "coordinates": [ [ [ [ 117.281168452207339, 4.154023394291753 ], [ 117.281353838494397, 4.154034493097427 ], [ 117.28136312901475, 4.153736102277306 ], [ 117.281160439661903, 4.153735803549045 ], [ 117.281168452207339, 4.154023394291753 ] ] ] ] } },
{ "type": "Feature", "properties": { "id": 1155, "area": 0.076517, "Nama_Obj": "Pemukiman", "Keterangan": "Tempat tinggal warga Desa Srinanti", "Kelas_Obj": "Bangunan" }, "geometry": { "type": "MultiPolygon", "coordinates": [ [ [ [ 117.281353838494397, 4.154034493097427 ], [ 117.281577269478348, 4.154020428036424 ], [ 117.281572915806734, 4.153743306034356 ], [ 117.28136312901475, 4.153736102277306 ], [ 117.281353838494397, 4.154034493097427 ] ] ] ] } },
{ "type": "Feature", "properties": { "id": 1156, "area": 0.070541, "Nama_Obj": "Pemukiman", "Keterangan": "Tempat tinggal warga Desa Srinanti", "Kelas_Obj": "Bangunan" }, "geometry": { "type": "MultiPolygon", "coordinates": [ [ [ [ 117.281577269478348, 4.154020428036424 ], [ 117.281773081434864, 4.154027852846304 ], [ 117.281778933204393, 4.153733025700428 ], [ 117.281572915806734, 4.153743306034356 ], [ 117.281577269478348, 4.154020428036424 ] ] ] ] } },
{ "type": "Feature", "properties": { "id": 1157, "area": 0.085389, "Nama_Obj": "Pemukiman", "Keterangan": "Tempat tinggal warga Desa Srinanti", "Kelas_Obj": "Bangunan" }, "geometry": { "type": "MultiPolygon", "coordinates": [ [ [ [ 117.281773081434864, 4.154027852846304 ], [ 117.282017419050533, 4.154009947798298 ], [ 117.282027150190913, 4.153739620663698 ], [ 117.281778933204393, 4.153733025700428 ], [ 117.281773081434864, 4.154027852846304 ] ] ] ] } },
{ "type": "Feature", "properties": { "id": 1158, "area": 0.095028, "Nama_Obj": "Pemukiman", "Keterangan": "Tempat tinggal warga Desa Srinanti", "Kelas_Obj": "Bangunan" }, "geometry": { "type": "MultiPolygon", "coordinates": [ [ [ [ 117.282017419050533, 4.154009947798298 ], [ 117.282303901063429, 4.154005410101657 ], [ 117.282313632095565, 4.153735083258263 ], [ 117.282027150190913, 4.153739620663698 ], [ 117.282017419050533, 4.154009947798298 ] ] ] ] } },
{ "type": "Feature", "properties": { "id": 1159, "area": 0.07766, "Nama_Obj": "Pemukiman", "Keterangan": "Tempat tinggal warga Desa Srinanti", "Kelas_Obj": "Bangunan" }, "geometry": { "type": "MultiPolygon", "coordinates": [ [ [ [ 117.281987586753289, 4.154557783903312 ], [ 117.282305787760691, 4.154570286827813 ], [ 117.282306029317553, 4.154363267531805 ], [ 117.281974239484725, 4.154375540799284 ], [ 117.281987586753289, 4.154557783903312 ] ] ] ] } },
{ "type": "Feature", "properties": { "id": 1160, "area": 0.046311, "Nama_Obj": "Pemukiman", "Keterangan": "Tempat tinggal warga Desa Srinanti", "Kelas_Obj": "Bangunan" }, "geometry": { "type": "MultiPolygon", "coordinates": [ [ [ [ 117.280422435518872, 4.155473801805559 ], [ 117.280618138487313, 4.155474210094195 ], [ 117.280604570335512, 4.155277934511457 ], [ 117.280419293420834, 4.1552738521436 ], [ 117.280422435518872, 4.155473801805559 ] ] ] ] } },
{ "type": "Feature", "properties": { "id": 1161, "area": 0.050073, "Nama_Obj": "Pemukiman", "Keterangan": "Tempat tinggal warga Desa Srinanti", "Kelas_Obj": "Bangunan" }, "geometry": { "type": "MultiPolygon", "coordinates": [ [ [ [ 117.280663556715425, 4.155473490537537 ], [ 117.280862753211281, 4.155473843411737 ], [ 117.280848909383892, 4.15526002860074 ], [ 117.280663742892983, 4.15526296205542 ], [ 117.280663556715425, 4.155473490537537 ] ] ] ] } },
{ "type": "Feature", "properties": { "id": 1162, "area": 0.04108, "Nama_Obj": "Pemukiman", "Keterangan": "Tempat tinggal warga Desa Srinanti", "Kelas_Obj": "Bangunan" }, "geometry": { "type": "MultiPolygon", "coordinates": [ [ [ [ 117.280925419415723, 4.155458815554294 ], [ 117.281117518045235, 4.155452263315841 ], [ 117.281107774265948, 4.155276980041998 ], [ 117.280929485113859, 4.155272787107154 ], [ 117.280925419415723, 4.155458815554294 ] ] ] ] } },
{ "type": "Feature", "properties": { "id": 1163, "area": 0.078398, "Nama_Obj": "Pemukiman", "Keterangan": "Tempat tinggal warga Desa Srinanti", "Kelas_Obj": "Bangunan" }, "geometry": { "type": "MultiPolygon", "coordinates": [ [ [ [ 117.280404583465199, 4.152112690832759 ], [ 117.280628345301167, 4.1521196749557 ], [ 117.280637913657358, 4.151838822839676 ], [ 117.280407164525982, 4.151831949082937 ], [ 117.280404583465199, 4.152112690832759 ] ] ] ] } },
{ "type": "Feature", "properties": { "id": 1164, "area": 0.084366, "Nama_Obj": "Pemukiman", "Keterangan": "Tempat tinggal warga Desa Srinanti", "Kelas_Obj": "Bangunan" }, "geometry": { "type": "MultiPolygon", "coordinates": [ [ [ [ 117.280628345301167, 4.1521196749557 ], [ 117.280883384929879, 4.1521156375884 ], [ 117.280875539813053, 4.151838570140929 ], [ 117.280637913657358, 4.151838822839676 ], [ 117.280628345301167, 4.1521196749557 ] ] ] ] } },
{ "type": "Feature", "properties": { "id": 1165, "area": 0.133222, "Nama_Obj": "Penginapan", "Keterangan": "Penginapan", "Kelas_Obj": "Bangunan" }, "geometry": { "type": "MultiPolygon", "coordinates": [ [ [ [ 117.280883384929879, 4.1521156375884 ], [ 117.281253991424563, 4.152127314359341 ], [ 117.281271650567462, 4.152027912617097 ], [ 117.281272307502334, 4.151847201610331 ], [ 117.280875539813053, 4.151838570140929 ], [ 117.280883384929879, 4.1521156375884 ] ] ] ] } },
{ "type": "Feature", "properties": { "id": 1166, "area": 0.06793, "Nama_Obj": "Pemukiman", "Keterangan": "Tempat tinggal warga Desa Srinanti", "Kelas_Obj": "Bangunan" }, "geometry": { "type": "MultiPolygon", "coordinates": [ [ [ [ 117.281683384041713, 4.152099464039893 ], [ 117.281941861224482, 4.152091863170546 ], [ 117.281952420592475, 4.151874154076912 ], [ 117.281697492251794, 4.151885207299934 ], [ 117.281683384041713, 4.152099464039893 ] ] ] ] } },
{ "type": "Feature", "properties": { "id": 1167, "area": 0.07769, "Nama_Obj": "Pemukiman", "Keterangan": "Tempat tinggal warga Desa Srinanti", "Kelas_Obj": "Bangunan" }, "geometry": { "type": "MultiPolygon", "coordinates": [ [ [ [ 117.282015173355433, 4.152087193761896 ], [ 117.282298105915146, 4.152079205611409 ], [ 117.28231210376228, 4.151857933634901 ], [ 117.282022183942729, 4.151866032169305 ], [ 117.282015173355433, 4.152087193761896 ] ] ] ] } },
{ "type": "Feature", "properties": { "id": 1168, "area": 0.038785, "Nama_Obj": "Pemukiman", "Keterangan": "Tempat tinggal warga Desa Srinanti", "Kelas_Obj": "Bangunan" }, "geometry": { "type": "MultiPolygon", "coordinates": [ [ [ [ 117.280422487974278, 4.15358652572186 ], [ 117.280586857336772, 4.153594449116547 ], [ 117.280599603576547, 4.15340477427898 ], [ 117.280431740565248, 4.15339690609087 ], [ 117.280422487974278, 4.15358652572186 ] ] ] ] } },
{ "type": "Feature", "properties": { "id": 1169, "area": 0.067319, "Nama_Obj": "Pemukiman", "Keterangan": "Tempat tinggal warga Desa Srinanti", "Kelas_Obj": "Bangunan" }, "geometry": { "type": "MultiPolygon", "coordinates": [ [ [ [ 117.280586857336772, 4.153594449116547 ], [ 117.280866491127739, 4.153598792753888 ], [ 117.280875495632074, 4.153393387964328 ], [ 117.280599603576547, 4.15340477427898 ], [ 117.280586857336772, 4.153594449116547 ] ] ] ] } },
{ "type": "Feature", "properties": { "id": 1170, "area": 0.054748, "Nama_Obj": "Pemukiman", "Keterangan": "Tempat tinggal warga Desa Srinanti", "Kelas_Obj": "Bangunan" }, "geometry": { "type": "MultiPolygon", "coordinates": [ [ [ [ 117.280866491127739, 4.153598792753888 ], [ 117.281090087740935, 4.153595251822247 ], [ 117.281101059431847, 4.153403851061883 ], [ 117.280875495632074, 4.153393387964328 ], [ 117.280866491127739, 4.153598792753888 ] ] ] ] } },
{ "type": "Feature", "properties": { "id": 1171, "area": 0.047878, "Nama_Obj": "Pemukiman", "Keterangan": "Tempat tinggal warga Desa Srinanti", "Kelas_Obj": "Bangunan" }, "geometry": { "type": "MultiPolygon", "coordinates": [ [ [ [ 117.281090087740935, 4.153595251822247 ], [ 117.281294579061438, 4.153599030890974 ], [ 117.281300255049402, 4.153404205388187 ], [ 117.281101059431847, 4.153403851061883 ], [ 117.281090087740935, 4.153595251822247 ] ] ] ] } },
{ "type": "Feature", "properties": { "id": 1172, "area": 0.05608, "Nama_Obj": "Pemukiman", "Keterangan": "Tempat tinggal warga Desa Srinanti", "Kelas_Obj": "Bangunan" }, "geometry": { "type": "MultiPolygon", "coordinates": [ [ [ [ 117.281294579061438, 4.153599030890974 ], [ 117.2815391649997, 4.153596911797697 ], [ 117.281539793249578, 4.153414447023745 ], [ 117.281300255049402, 4.153404205388187 ], [ 117.281294579061438, 4.153599030890974 ] ] ] ] } },
{ "type": "Feature", "properties": { "id": 1173, "area": 0.052688, "Nama_Obj": "Pemukiman", "Keterangan": "Tempat tinggal warga Desa Srinanti", "Kelas_Obj": "Bangunan" }, "geometry": { "type": "MultiPolygon", "coordinates": [ [ [ [ 117.2815391649997, 4.153596911797697 ], [ 117.281776873550029, 4.153601919031457 ], [ 117.28177048681512, 4.153417811143324 ], [ 117.281539793249578, 4.153414447023745 ], [ 117.2815391649997, 4.153596911797697 ] ] ] ] } },
{ "type": "Feature", "properties": { "id": 1174, "area": 0.076849, "Nama_Obj": "Pemukiman", "Keterangan": "Tempat tinggal warga Desa Srinanti", "Kelas_Obj": "Bangunan" }, "geometry": { "type": "MultiPolygon", "coordinates": [ [ [ [ 117.281776873550029, 4.153601919031457 ], [ 117.282019877521549, 4.153610351050768 ], [ 117.282026390904974, 4.153357618602758 ], [ 117.28176949494258, 4.153354669467663 ], [ 117.28177048681512, 4.153417811143324 ], [ 117.281776873550029, 4.153601919031457 ] ] ] ] } },
{ "type": "Feature", "properties": { "id": 1175, "area": 0.084896, "Nama_Obj": "Pemukiman", "Keterangan": "Tempat tinggal warga Desa Srinanti", "Kelas_Obj": "Bangunan" }, "geometry": { "type": "MultiPolygon", "coordinates": [ [ [ [ 117.282019877521549, 4.153610351050768 ], [ 117.282299372028675, 4.153605924455031 ], [ 117.282311373810899, 4.153368894665201 ], [ 117.282026390904974, 4.153357618602758 ], [ 117.282019877521549, 4.153610351050768 ] ] ] ] } },
{ "type": "Feature", "properties": { "id": 1176, "area": 0.011277, "Nama_Obj": "Toko", "Keterangan": "Apotek Ersyah Farma", "Kelas_Obj": "Bangunan" }, "geometry": { "type": "MultiPolygon", "coordinates": [ [ [ [ 117.280405854081479, 4.152749949493797 ], [ 117.280549095783201, 4.152747681637933 ], [ 117.280546384863626, 4.152686321266349 ], [ 117.280406526694875, 4.152681517997382 ], [ 117.280405854081479, 4.152749949493797 ] ] ] ] } },
{ "type": "Feature", "properties": { "id": 1177, "area": 0.008981, "Nama_Obj": "Cafe", "Keterangan": "Kopi Goy", "Kelas_Obj": "Bangunan" }, "geometry": { "type": "MultiPolygon", "coordinates": [ [ [ [ 117.280406526694875, 4.152681517997382 ], [ 117.280546384863626, 4.152686321266349 ], [ 117.280545558529312, 4.152633702955949 ], [ 117.280407447221037, 4.152628872002982 ], [ 117.280406526694875, 4.152681517997382 ] ] ] ] } },
{ "type": "Feature", "properties": { "id": 1178, "area": 0.011493, "Nama_Obj": "Warung Makan", "Keterangan": "Warung Makan", "Kelas_Obj": "Bangunan" }, "geometry": { "type": "MultiPolygon", "coordinates": [ [ [ [ 117.280407447221037, 4.152628872002982 ], [ 117.280545558529312, 4.152633702955949 ], [ 117.280548005552703, 4.152566997784309 ], [ 117.280401187552101, 4.152564059018355 ], [ 117.280407447221037, 4.152628872002982 ] ] ] ] } },
{ "type": "Feature", "properties": { "id": 1179, "area": 0.258596, "Nama_Obj": "Kantor Polisi", "Keterangan": "Kantor Polisi", "Kelas_Obj": "Bangunan" }, "geometry": { "type": "MultiPolygon", "coordinates": [ [ [ [ 117.274208265150023, 4.152492118732185 ], [ 117.274540284413774, 4.152493882779822 ], [ 117.274551557197213, 4.151876148750079 ], [ 117.274205453001784, 4.151867589079141 ], [ 117.274208265150023, 4.152492118732185 ] ] ] ] } },
{ "type": "Feature", "properties": { "id": 1180, "area": 0.030046, "Nama_Obj": "Musholla", "Keterangan": "Musholla", "Kelas_Obj": "Bangunan" }, "geometry": { "type": "MultiPolygon", "coordinates": [ [ [ [ 117.276601151386743, 4.158438532597481 ], [ 117.276810860640381, 4.158440472157481 ], [ 117.276814253822948, 4.158322873210908 ], [ 117.276608038381767, 4.158320878187645 ], [ 117.276601151386743, 4.158438532597481 ] ] ] ] } },
{ "type": "Feature", "properties": { "id": 1181, "area": 0.22496, "Nama_Obj": "Pemukiman", "Keterangan": "Tempat tinggal warga Desa Srinanti", "Kelas_Obj": "Bangunan" }, "geometry": { "type": "MultiPolygon", "coordinates": [ [ [ [ 117.27853857560261, 4.151256258846272 ], [ 117.278784882702865, 4.151252361208959 ], [ 117.278751862876831, 4.15048446030504 ], [ 117.278521277707142, 4.150488108475808 ], [ 117.27853857560261, 4.151256258846272 ] ] ] ] } },
{ "type": "Feature", "properties": { "id": 1182, "area": 0.097674, "Nama_Obj": "Toko", "Keterangan": "Toko Serbaguna", "Kelas_Obj": "Bangunan" }, "geometry": { "type": "MultiPolygon", "coordinates": [ [ [ [ 117.279191, 4.151752 ], [ 117.279514659396483, 4.151743444260865 ], [ 117.279521423252433, 4.151506495043801 ], [ 117.279178166278342, 4.151511927490243 ], [ 117.279191, 4.151752 ] ] ] ] } },
{ "type": "Feature", "properties": { "id": 1183, "area": 0.113935, "Nama_Obj": "Pemukiman", "Keterangan": "Tempat tinggal warga Desa Srinanti", "Kelas_Obj": "Bangunan" }, "geometry": { "type": "MultiPolygon", "coordinates": [ [ [ [ 117.279514659396483, 4.151743444260865 ], [ 117.279892062250084, 4.15174273405966 ], [ 117.279898536858298, 4.151487368724673 ], [ 117.279521423252433, 4.151506495043801 ], [ 117.279514659396483, 4.151743444260865 ] ] ] ] } },
{ "type": "Feature", "properties": { "id": 1184, "area": 0.076266, "Nama_Obj": "Pemukiman", "Keterangan": "Tempat tinggal warga Desa Srinanti", "Kelas_Obj": "Bangunan" }, "geometry": { "type": "MultiPolygon", "coordinates": [ [ [ [ 117.280040721654387, 4.151737749522161 ], [ 117.280290854632511, 4.151727211456898 ], [ 117.280296246147643, 4.151486337292007 ], [ 117.280040073063432, 4.151487760217385 ], [ 117.280040721654387, 4.151737749522161 ] ] ] ] } },
{ "type": "Feature", "properties": { "id": 1185, "area": 0.065021, "Nama_Obj": "Pemukiman", "Keterangan": "Tempat tinggal warga Desa Srinanti", "Kelas_Obj": "Bangunan" }, "geometry": { "type": "MultiPolygon", "coordinates": [ [ [ [ 117.280040073063432, 4.151487760217385 ], [ 117.280296246147643, 4.151486337292007 ], [ 117.280302112850464, 4.151275718696765 ], [ 117.280042174635398, 4.151287727305079 ], [ 117.280040073063432, 4.151487760217385 ] ] ] ] } },
{ "type": "Feature", "properties": { "id": 1186, "area": 0.069389, "Nama_Obj": "Pemukiman", "Keterangan": "Tempat tinggal warga Desa Srinanti", "Kelas_Obj": "Bangunan" }, "geometry": { "type": "MultiPolygon", "coordinates": [ [ [ [ 117.280302112850464, 4.151275718696765 ], [ 117.280309289852866, 4.151065079378583 ], [ 117.280051724186322, 4.151061260790009 ], [ 117.280042174635398, 4.151287727305079 ], [ 117.280302112850464, 4.151275718696765 ] ] ] ] } },
{ "type": "Feature", "properties": { "id": 1187, "area": 0.073155, "Nama_Obj": "Pemukiman", "Keterangan": "Tempat tinggal warga Desa Srinanti", "Kelas_Obj": "Bangunan" }, "geometry": { "type": "MultiPolygon", "coordinates": [ [ [ [ 117.280051724186322, 4.151061260790009 ], [ 117.280309289852866, 4.151065079378583 ], [ 117.280319442947189, 4.150835314086237 ], [ 117.28004825515373, 4.150840263457708 ], [ 117.280051724186322, 4.151061260790009 ] ] ] ] } },
{ "type": "Feature", "properties": { "id": 1188, "area": 0.077209, "Nama_Obj": "Pemukiman", "Keterangan": "Tempat tinggal warga Desa Srinanti", "Kelas_Obj": "Bangunan" }, "geometry": { "type": "MultiPolygon", "coordinates": [ [ [ [ 117.28004825515373, 4.150840263457708 ], [ 117.280319442947189, 4.150835314086237 ], [ 117.280319104832344, 4.150605056937089 ], [ 117.280039463173452, 4.150614087204729 ], [ 117.28004825515373, 4.150840263457708 ] ] ] ] } },
{ "type": "Feature", "properties": { "id": 1189, "area": 0.051577, "Nama_Obj": "Pemukiman", "Keterangan": "Tempat tinggal warga Desa Srinanti", "Kelas_Obj": "Bangunan" }, "geometry": { "type": "MultiPolygon", "coordinates": [ [ [ [ 117.280039463173452, 4.150614087204729 ], [ 117.280319104832344, 4.150605056937089 ], [ 117.28032554564399, 4.150472718558718 ], [ 117.280042102208995, 4.150448256274736 ], [ 117.280039463173452, 4.150614087204729 ] ] ] ] } },
{ "type": "Feature", "properties": { "id": 1190, "area": 0.058269, "Nama_Obj": "Pemukiman", "Keterangan": "Tempat tinggal warga Desa Srinanti", "Kelas_Obj": "Bangunan" }, "geometry": { "type": "MultiPolygon", "coordinates": [ [ [ [ 117.278543909873562, 4.151721307843616 ], [ 117.278815130503759, 4.151718331276854 ], [ 117.278801882206068, 4.151542224634775 ], [ 117.278534592058989, 4.151545138815138 ], [ 117.278543909873562, 4.151721307843616 ] ] ] ] } },
{ "type": "Feature", "properties": { "id": 1191, "area": 0.050984, "Nama_Obj": "Penginapan", "Keterangan": "Penginapan", "Kelas_Obj": "Bangunan" }, "geometry": { "type": "MultiPolygon", "coordinates": [ [ [ [ 117.275638400762489, 4.155507472964735 ], [ 117.275993610495902, 4.155499924394316 ], [ 117.27599517277136, 4.155384862922867 ], [ 117.275644751544647, 4.155387028811973 ], [ 117.275638400762489, 4.155507472964735 ] ] ] ] } }
]
}
